{
"type": "FeatureCollection",
"name": "hotosm_ita_sea_ports_polygons_geojson",
"features": [
{ "type": "Feature", "properties": { "name": "Murazzi", "name:en": null, "amenity": "ferry_terminal", "building": null, "port": null, "operator:type": null, "addr:full": null, "addr:city": null, "source": null, "name:it": null, "osm_id": 106520984, "osm_type": "ways_poly" }, "geometry": { "type": "Polygon", "coordinates": [ [ [ 7.6923908, 45.0596962 ], [ 7.6924323, 45.0596932 ], [ 7.6924723, 45.0597021 ], [ 7.6925171, 45.0597375 ], [ 7.6926955, 45.0599697 ], [ 7.6929298, 45.0602591 ], [ 7.6928492, 45.060292 ], [ 7.6926131, 45.0599932 ], [ 7.6924886, 45.0598268 ], [ 7.6923908, 45.0596962 ] ] ] } },
{ "type": "Feature", "properties": { "name": "Scalo di Arona", "name:en": null, "amenity": "ferry_terminal", "building": "yes", "port": null, "operator:type": "public", "addr:full": null, "addr:city": "Arona", "source": null, "name:it": null, "osm_id": 116538554, "osm_type": "ways_poly" }, "geometry": { "type": "Polygon", "coordinates": [ [ [ 8.5611357, 45.7586742 ], [ 8.561211, 45.7586343 ], [ 8.5613197, 45.7586383 ], [ 8.5613723, 45.758777 ], [ 8.5613917, 45.7588281 ], [ 8.5613114, 45.7588616 ], [ 8.5612156, 45.7588605 ], [ 8.5611939, 45.7588099 ], [ 8.5611357, 45.7586742 ] ] ] } },
{ "type": "Feature", "properties": { "name": "Imbarcadero", "name:en": null, "amenity": "ferry_terminal", "building": "yes", "port": null, "operator:type": null, "addr:full": null, "addr:city": null, "source": null, "name:it": null, "osm_id": 207646786, "osm_type": "ways_poly" }, "geometry": { "type": "Polygon", "coordinates": [ [ [ 8.5414651, 45.8845981 ], [ 8.5415272, 45.8845753 ], [ 8.5415147, 45.8845587 ], [ 8.5415977, 45.8845282 ], [ 8.5416082, 45.8845421 ], [ 8.5416686, 45.88452 ], [ 8.5417465, 45.8846228 ], [ 8.5415409, 45.8846982 ], [ 8.5414651, 45.8845981 ] ] ] } },
{ "type": "Feature", "properties": { "name": null, "name:en": null, "amenity": "ferry_terminal", "building": null, "port": null, "operator:type": null, "addr:full": null, "addr:city": null, "source": null, "name:it": null, "osm_id": 955823568, "osm_type": "ways_poly" }, "geometry": { "type": "Polygon", "coordinates": [ [ [ 8.4032379, 40.8421224 ], [ 8.403282, 40.8420999 ], [ 8.4033345, 40.8421593 ], [ 8.4032905, 40.8421818 ], [ 8.4032379, 40.8421224 ] ] ] } },
{ "type": "Feature", "properties": { "name": "Porto Vecchio Porto Nogaro", "name:en": null, "amenity": null, "building": null, "port": "cargo", "operator:type": null, "addr:full": null, "addr:city": null, "source": null, "name:it": null, "osm_id": 365868535, "osm_type": "ways_poly" }, "geometry": { "type": "Polygon", "coordinates": [ [ [ 13.2198296, 45.8152314 ], [ 13.2199818, 45.8151631 ], [ 13.2204708, 45.8149435 ], [ 13.2215589, 45.8144537 ], [ 13.2226964, 45.81359 ], [ 13.2231526, 45.8128509 ], [ 13.223395, 45.8128808 ], [ 13.2234755, 45.812892 ], [ 13.2231347, 45.8138646 ], [ 13.2218741, 45.8148573 ], [ 13.2201925, 45.8156495 ], [ 13.2198296, 45.8152314 ] ] ] } },
{ "type": "Feature", "properties": { "name": "Navigazione Lago di Como", "name:en": null, "amenity": "ferry_terminal", "building": "yes", "port": null, "operator:type": null, "addr:full": null, "addr:city": null, "source": null, "name:it": null, "osm_id": 175753120, "osm_type": "ways_poly" }, "geometry": { "type": "Polygon", "coordinates": [ [ [ 9.2827743, 46.0138946 ], [ 9.2827942, 46.0138619 ], [ 9.2828118, 46.0138247 ], [ 9.2828343, 46.0138305 ], [ 9.2828502, 46.0138009 ], [ 9.2829096, 46.0138163 ], [ 9.2828735, 46.0138834 ], [ 9.2828377, 46.01395 ], [ 9.2827752, 46.0139339 ], [ 9.2827937, 46.0138996 ], [ 9.2827743, 46.0138946 ] ] ] } },
{ "type": "Feature", "properties": { "name": "Terminal Crociere e Traghetti Grecia", "name:en": null, "amenity": "ferry_terminal", "building": "yes", "port": null, "operator:type": null, "addr:full": null, "addr:city": null, "source": null, "name:it": null, "osm_id": 305181357, "osm_type": "ways_poly" }, "geometry": { "type": "Polygon", "coordinates": [ [ [ 16.8669391, 41.1365526 ], [ 16.867277, 41.1363084 ], [ 16.8673449, 41.1363632 ], [ 16.8674036, 41.1363208 ], [ 16.8675856, 41.1364681 ], [ 16.8675267, 41.1365097 ], [ 16.8675983, 41.1365674 ], [ 16.867261, 41.1368111 ], [ 16.8671876, 41.1367518 ], [ 16.8671374, 41.1367891 ], [ 16.8669513, 41.1366427 ], [ 16.8670034, 41.1366042 ], [ 16.8669391, 41.1365526 ] ] ] } },
{ "type": "Feature", "properties": { "name": "HHLA PLT Italy", "name:en": null, "amenity": null, "building": null, "port": "cargo", "operator:type": null, "addr:full": null, "addr:city": null, "source": null, "name:it": null, "osm_id": 737243450, "osm_type": "ways_poly" }, "geometry": { "type": "Polygon", "coordinates": [ [ [ 13.7713152, 45.6261249 ], [ 13.7720947, 45.6258339 ], [ 13.7721656, 45.6258175 ], [ 13.7723439, 45.6258113 ], [ 13.772545, 45.6258051 ], [ 13.7727717, 45.6258011 ], [ 13.7730045, 45.6257952 ], [ 13.7735494, 45.6257736 ], [ 13.7741267, 45.6257551 ], [ 13.7745275, 45.625551 ], [ 13.7752448, 45.6251923 ], [ 13.7755177, 45.6250542 ], [ 13.7756225, 45.6249436 ], [ 13.7756408, 45.6247741 ], [ 13.7756619, 45.6245646 ], [ 13.7756885, 45.6243957 ], [ 13.7758086, 45.6243619 ], [ 13.7759301, 45.6242788 ], [ 13.7760775, 45.6242704 ], [ 13.7762693, 45.6241625 ], [ 13.7764694, 45.6243159 ], [ 13.7765229, 45.624401 ], [ 13.7765942, 45.6245984 ], [ 13.776635, 45.6247613 ], [ 13.7767025, 45.6248859 ], [ 13.7768029, 45.6248935 ], [ 13.7768425, 45.6250961 ], [ 13.7769277, 45.6252941 ], [ 13.7770834, 45.6255154 ], [ 13.7772268, 45.6256814 ], [ 13.7772952, 45.6256274 ], [ 13.777707, 45.6257816 ], [ 13.7782543, 45.6261609 ], [ 13.7781555, 45.6262318 ], [ 13.778718, 45.6264793 ], [ 13.7796207, 45.6268538 ], [ 13.7799942, 45.6270357 ], [ 13.7802336, 45.6272152 ], [ 13.7804183, 45.6274131 ], [ 13.7805448, 45.6276291 ], [ 13.7806236, 45.6278421 ], [ 13.7806572, 45.6282399 ], [ 13.7809373, 45.6282554 ], [ 13.7809359, 45.6285645 ], [ 13.7808888, 45.628795 ], [ 13.7807704, 45.6290967 ], [ 13.7805575, 45.6294169 ], [ 13.780396, 45.6296543 ], [ 13.7801378, 45.6300367 ], [ 13.7799944, 45.6304083 ], [ 13.7799661, 45.630183 ], [ 13.7798553, 45.6303859 ], [ 13.7797094, 45.6307643 ], [ 13.7796733, 45.6308579 ], [ 13.779603, 45.6310497 ], [ 13.7795821, 45.6312104 ], [ 13.7794536, 45.6312235 ], [ 13.7783071, 45.6308998 ], [ 13.7782456, 45.631017 ], [ 13.7781616, 45.6311761 ], [ 13.7734312, 45.6296819 ], [ 13.7733521, 45.6295682 ], [ 13.7737434, 45.6294238 ], [ 13.7713152, 45.6261249 ] ] ] } },
{ "type": "Feature", "properties": { "name": "LSCT Molo Fornelli", "name:en": null, "amenity": null, "building": null, "port": "cargo", "operator:type": null, "addr:full": null, "addr:city": null, "source": null, "name:it": null, "osm_id": 222609177, "osm_type": "ways_poly" }, "geometry": { "type": "Polygon", "coordinates": [ [ [ 9.8383802, 44.1093782 ], [ 9.8384339, 44.1075236 ], [ 9.8389998, 44.1075236 ], [ 9.8390669, 44.1058692 ], [ 9.8399548, 44.1058572 ], [ 9.8398205, 44.1093815 ], [ 9.8400547, 44.1093953 ], [ 9.8400655, 44.1096107 ], [ 9.8439003, 44.109308 ], [ 9.843974, 44.1046076 ], [ 9.8458524, 44.1046275 ], [ 9.8477322, 44.1085773 ], [ 9.8478974, 44.1093069 ], [ 9.8478326, 44.1096294 ], [ 9.8477509, 44.1102265 ], [ 9.8476079, 44.110377 ], [ 9.8456056, 44.1103733 ], [ 9.8440679, 44.1103628 ], [ 9.8426353, 44.1107881 ], [ 9.8421509, 44.1108279 ], [ 9.8419759, 44.1107881 ], [ 9.8419422, 44.1107418 ], [ 9.8419365, 44.1105789 ], [ 9.8415021, 44.1105821 ], [ 9.8415203, 44.1108848 ], [ 9.8403347, 44.1107818 ], [ 9.8402739, 44.109904 ], [ 9.8383802, 44.1093782 ] ] ] } },
{ "type": "Feature", "properties": { "name": "Porto di Revere", "name:en": null, "amenity": null, "building": null, "port": "cargo", "operator:type": null, "addr:full": null, "addr:city": null, "source": null, "name:it": null, "osm_id": 303331305, "osm_type": "ways_poly" }, "geometry": { "type": "Polygon", "coordinates": [ [ [ 11.1487148, 45.0446057 ], [ 11.1496098, 45.0440801 ], [ 11.1500257, 45.0446129 ], [ 11.1490226, 45.0450186 ], [ 11.1488367, 45.0447837 ], [ 11.1488086, 45.0447352 ], [ 11.1487148, 45.0446057 ] ] ] } },
{ "type": "Feature", "properties": { "name": null, "name:en": null, "amenity": "ferry_terminal", "building": null, "port": null, "operator:type": null, "addr:full": null, "addr:city": null, "source": null, "name:it": null, "osm_id": 1311726989, "osm_type": "ways_poly" }, "geometry": { "type": "Polygon", "coordinates": [ [ [ 12.5090409, 44.1113427 ], [ 12.5090529, 44.1113361 ], [ 12.5097833, 44.1120136 ], [ 12.5097622, 44.1120233 ], [ 12.5090409, 44.1113427 ] ] ] } },
{ "type": "Feature", "properties": { "name": "Motonave BellaRimini", "name:en": null, "amenity": "ferry_terminal", "building": null, "port": null, "operator:type": null, "addr:full": null, "addr:city": null, "source": null, "name:it": null, "osm_id": 1311727970, "osm_type": "ways_poly" }, "geometry": { "type": "Polygon", "coordinates": [ [ [ 12.5550769, 44.0790781 ], [ 12.5550883, 44.079066 ], [ 12.5557766, 44.0794014 ], [ 12.5557651, 44.0794136 ], [ 12.5550769, 44.0790781 ] ] ] } },
{ "type": "Feature", "properties": { "name": "Motonave Super Tayfun", "name:en": null, "amenity": "ferry_terminal", "building": null, "port": null, "operator:type": null, "addr:full": null, "addr:city": null, "source": null, "name:it": null, "osm_id": 390046230, "osm_type": "ways_poly" }, "geometry": { "type": "Polygon", "coordinates": [ [ [ 12.4839062, 44.1342838 ], [ 12.4839162, 44.1342758 ], [ 12.4848995, 44.1348437 ], [ 12.4848836, 44.1348573 ], [ 12.4839689, 44.1343203 ], [ 12.4839062, 44.1342838 ] ] ] } },
{ "type": "Feature", "properties": { "name": null, "name:en": null, "amenity": "ferry_terminal", "building": null, "port": null, "operator:type": null, "addr:full": null, "addr:city": null, "source": "Bing", "name:it": null, "osm_id": 224029295, "osm_type": "ways_poly" }, "geometry": { "type": "Polygon", "coordinates": [ [ [ 12.293895, 45.2435596 ], [ 12.2939481, 45.2435331 ], [ 12.2940595, 45.2436437 ], [ 12.2940064, 45.2436702 ], [ 12.293895, 45.2435596 ] ] ] } },
{ "type": "Feature", "properties": { "name": "Banchine commerciali", "name:en": null, "amenity": null, "building": null, "port": "cargo", "operator:type": null, "addr:full": null, "addr:city": null, "source": null, "name:it": null, "osm_id": 542825093, "osm_type": "ways_poly" }, "geometry": { "type": "Polygon", "coordinates": [ [ [ 16.866215, 41.1430658 ], [ 16.8667328, 41.1430401 ], [ 16.871204, 41.1397904 ], [ 16.870973, 41.1356587 ], [ 16.8723071, 41.1356517 ], [ 16.8723875, 41.1374173 ], [ 16.8724841, 41.1391181 ], [ 16.8723875, 41.1399383 ], [ 16.8721086, 41.1406008 ], [ 16.8714112, 41.1413482 ], [ 16.8704241, 41.1420713 ], [ 16.8692386, 41.1426005 ], [ 16.8670553, 41.1431338 ], [ 16.8662238, 41.1431863 ], [ 16.866215, 41.1430658 ] ] ] } },
{ "type": "Feature", "properties": { "name": "Italia '61", "name:en": null, "amenity": "ferry_terminal", "building": null, "port": null, "operator:type": null, "addr:full": null, "addr:city": null, "source": null, "name:it": null, "osm_id": 135660967, "osm_type": "ways_poly" }, "geometry": { "type": "Polygon", "coordinates": [ [ [ 7.6735688, 45.0263089 ], [ 7.6735773, 45.0262459 ], [ 7.6735856, 45.0261878 ], [ 7.6736385, 45.0261914 ], [ 7.6736306, 45.0262485 ], [ 7.6736218, 45.0263126 ], [ 7.6735688, 45.0263089 ] ] ] } },
{ "type": "Feature", "properties": { "name": "Terminal Terrare", "name:en": null, "amenity": "ferry_terminal", "building": "yes", "port": null, "operator:type": null, "addr:full": null, "addr:city": null, "source": null, "name:it": null, "osm_id": 422356528, "osm_type": "ways_poly" }, "geometry": { "type": "Polygon", "coordinates": [ [ [ 17.9603022, 40.6450982 ], [ 17.960521, 40.645009 ], [ 17.9605577, 40.645057 ], [ 17.9604705, 40.6450944 ], [ 17.9605208, 40.6451482 ], [ 17.9606564, 40.6451509 ], [ 17.9606696, 40.6450092 ], [ 17.9606259, 40.6450291 ], [ 17.9605879, 40.6449818 ], [ 17.9607743, 40.6449057 ], [ 17.9608093, 40.6449528 ], [ 17.9606951, 40.6450003 ], [ 17.9606865, 40.6451504 ], [ 17.9607044, 40.645151 ], [ 17.9606986, 40.6452532 ], [ 17.9606957, 40.6453037 ], [ 17.9606769, 40.6456311 ], [ 17.9606731, 40.6456967 ], [ 17.9606309, 40.6456996 ], [ 17.9606054, 40.6457678 ], [ 17.9605089, 40.6457495 ], [ 17.9605296, 40.6456914 ], [ 17.9604977, 40.6456931 ], [ 17.9605275, 40.645232 ], [ 17.9604756, 40.6452298 ], [ 17.9604771, 40.6451609 ], [ 17.9604567, 40.645142 ], [ 17.960425, 40.6451125 ], [ 17.9603378, 40.6451471 ], [ 17.9603022, 40.6450982 ] ] ] } },
{ "type": "Feature", "properties": { "name": "PSA Genova Pra'", "name:en": null, "amenity": null, "building": null, "port": "roro", "operator:type": null, "addr:full": null, "addr:city": null, "source": null, "name:it": null, "osm_id": 259610367, "osm_type": "ways_poly" }, "geometry": { "type": "Polygon", "coordinates": [ [ [ 8.7743814, 44.4226424 ], [ 8.7744686, 44.4224327 ], [ 8.7767311, 44.4174625 ], [ 8.7769288, 44.4175085 ], [ 8.7756907, 44.4202405 ], [ 8.7757911, 44.4202631 ], [ 8.7759473, 44.4202983 ], [ 8.7767372, 44.4201877 ], [ 8.776796, 44.4200255 ], [ 8.7769433, 44.4200488 ], [ 8.7770699, 44.4200689 ], [ 8.7777155, 44.4186309 ], [ 8.7778747, 44.4186577 ], [ 8.7772639, 44.4199356 ], [ 8.7773924, 44.4199651 ], [ 8.7775517, 44.4200039 ], [ 8.7775228, 44.4200737 ], [ 8.7775592, 44.4200732 ], [ 8.777356, 44.4203749 ], [ 8.7771806, 44.4204089 ], [ 8.7772146, 44.4204756 ], [ 8.7770154, 44.420508 ], [ 8.7770709, 44.4207128 ], [ 8.7770945, 44.420837 ], [ 8.7767056, 44.420906 ], [ 8.7765688, 44.4204443 ], [ 8.7754717, 44.420611 ], [ 8.7747851, 44.4221952 ], [ 8.7752992, 44.4224738 ], [ 8.7755093, 44.4232009 ], [ 8.7754672, 44.423343 ], [ 8.7748459, 44.4234354 ], [ 8.7747267, 44.4228001 ], [ 8.7744961, 44.4228255 ], [ 8.774385, 44.4227858 ], [ 8.7744459, 44.4226655 ], [ 8.7743814, 44.4226424 ] ] ] } },
{ "type": "Feature", "properties": { "name": null, "name:en": null, "amenity": "ferry_terminal", "building": null, "port": null, "operator:type": null, "addr:full": null, "addr:city": null, "source": null, "name:it": null, "osm_id": 745406890, "osm_type": "ways_poly" }, "geometry": { "type": "Polygon", "coordinates": [ [ [ 8.4112201, 45.8725801 ], [ 8.4112366, 45.8725704 ], [ 8.4112554, 45.8725593 ], [ 8.4112985, 45.8725949 ], [ 8.4112798, 45.8726059 ], [ 8.4112632, 45.8726157 ], [ 8.4112201, 45.8725801 ] ] ] } },
{ "type": "Feature", "properties": { "name": "ENI", "name:en": null, "amenity": null, "building": null, "port": "cargo", "operator:type": null, "addr:full": null, "addr:city": null, "source": null, "name:it": null, "osm_id": 255067275, "osm_type": "ways_poly" }, "geometry": { "type": "Polygon", "coordinates": [ [ [ 8.9156596, 44.4018259 ], [ 8.9157033, 44.4016186 ], [ 8.9158292, 44.4012137 ], [ 8.9159208, 44.4011544 ], [ 8.9160181, 44.4011524 ], [ 8.9160467, 44.400995 ], [ 8.9160939, 44.3992392 ], [ 8.9160931, 44.3991291 ], [ 8.9161228, 44.3989855 ], [ 8.9166118, 44.3989854 ], [ 8.9167345, 44.3989899 ], [ 8.9167009, 44.4009132 ], [ 8.9166954, 44.4010798 ], [ 8.9165855, 44.4012849 ], [ 8.9165692, 44.4018576 ], [ 8.9156596, 44.4018259 ] ] ] } },
{ "type": "Feature", "properties": { "name": "Petrolig", "name:en": null, "amenity": null, "building": null, "port": "cargo", "operator:type": null, "addr:full": null, "addr:city": null, "source": null, "name:it": null, "osm_id": 255067278, "osm_type": "ways_poly" }, "geometry": { "type": "Polygon", "coordinates": [ [ [ 8.9148719, 44.4018979 ], [ 8.914905, 44.4016842 ], [ 8.9154677, 44.3991081 ], [ 8.9160931, 44.3991291 ], [ 8.9160939, 44.3992392 ], [ 8.9160467, 44.400995 ], [ 8.9160181, 44.4011524 ], [ 8.9159208, 44.4011544 ], [ 8.9158292, 44.4012137 ], [ 8.9157033, 44.4016186 ], [ 8.9156596, 44.4018259 ], [ 8.9156045, 44.4020873 ], [ 8.9154952, 44.402067 ], [ 8.9154791, 44.4019369 ], [ 8.9148719, 44.4018979 ] ] ] } },
{ "type": "Feature", "properties": { "name": "Rigassificatore di Panigaglia", "name:en": null, "amenity": null, "building": null, "port": "cargo", "operator:type": null, "addr:full": null, "addr:city": null, "source": null, "name:it": null, "osm_id": 307705926, "osm_type": "ways_poly" }, "geometry": { "type": "Polygon", "coordinates": [ [ [ 9.8292851, 44.0752837 ], [ 9.829424, 44.0751927 ], [ 9.8295484, 44.0750175 ], [ 9.8297166, 44.0743799 ], [ 9.8296459, 44.0740716 ], [ 9.8293289, 44.0735234 ], [ 9.8293655, 44.0734253 ], [ 9.8303529, 44.0728262 ], [ 9.8306701, 44.0724931 ], [ 9.8308305, 44.0723977 ], [ 9.831096, 44.0723246 ], [ 9.8313252, 44.0723246 ], [ 9.8316114, 44.0723729 ], [ 9.8319148, 44.0725178 ], [ 9.8321158, 44.0725931 ], [ 9.8327643, 44.073024 ], [ 9.8331934, 44.0732623 ], [ 9.8337483, 44.0737353 ], [ 9.8335807, 44.0737902 ], [ 9.8335262, 44.0738346 ], [ 9.8334342, 44.0739653 ], [ 9.8333702, 44.0740761 ], [ 9.8333693, 44.0741132 ], [ 9.833396, 44.0741791 ], [ 9.8333654, 44.0742136 ], [ 9.8333215, 44.0742073 ], [ 9.8332487, 44.0742303 ], [ 9.8332045, 44.0742757 ], [ 9.8331658, 44.0743113 ], [ 9.8330614, 44.0743322 ], [ 9.832897, 44.0743882 ], [ 9.8326746, 44.0744743 ], [ 9.8325549, 44.074541 ], [ 9.8323472, 44.0746462 ], [ 9.8322524, 44.0747011 ], [ 9.8321264, 44.074774 ], [ 9.8320298, 44.0748419 ], [ 9.8319678, 44.0748487 ], [ 9.8319009, 44.0748236 ], [ 9.8318558, 44.0747696 ], [ 9.8317761, 44.0747351 ], [ 9.8314979, 44.0748592 ], [ 9.8311662, 44.0751207 ], [ 9.8311723, 44.0752046 ], [ 9.8312311, 44.0752884 ], [ 9.8313055, 44.0753577 ], [ 9.8311467, 44.0754485 ], [ 9.8310161, 44.0753337 ], [ 9.8309031, 44.0753281 ], [ 9.8308498, 44.075384 ], [ 9.8307052, 44.0756033 ], [ 9.8305984, 44.0756864 ], [ 9.8305557, 44.0756491 ], [ 9.8305089, 44.0756745 ], [ 9.830553, 44.075718 ], [ 9.8299249, 44.0760931 ], [ 9.8299047, 44.0761738 ], [ 9.8295849, 44.0760562 ], [ 9.8293338, 44.075846 ], [ 9.8296873, 44.0756183 ], [ 9.8292851, 44.0752837 ] ] ] } },
{ "type": "Feature", "properties": { "name": "Porto di Rovigo", "name:en": null, "amenity": null, "building": null, "port": "cargo", "operator:type": null, "addr:full": null, "addr:city": null, "source": null, "name:it": null, "osm_id": 225161854, "osm_type": "ways_poly" }, "geometry": { "type": "Polygon", "coordinates": [ [ [ 11.8066036, 45.0314777 ], [ 11.8067807, 45.0313357 ], [ 11.8074736, 45.0320571 ], [ 11.8102178, 45.0331737 ], [ 11.8097329, 45.0338631 ], [ 11.8069778, 45.0326943 ], [ 11.8073436, 45.032229 ], [ 11.8066036, 45.0314777 ] ] ] } },
{ "type": "Feature", "properties": { "name": "Porto di Viadana", "name:en": null, "amenity": null, "building": null, "port": "cargo", "operator:type": null, "addr:full": null, "addr:city": null, "source": null, "name:it": null, "osm_id": 345662982, "osm_type": "ways_poly" }, "geometry": { "type": "Polygon", "coordinates": [ [ [ 10.4963183, 44.9318656 ], [ 10.4980856, 44.9303097 ], [ 10.4985577, 44.9305978 ], [ 10.4978078, 44.9312396 ], [ 10.4976075, 44.9311323 ], [ 10.4967216, 44.9319432 ], [ 10.4967255, 44.9320151 ], [ 10.4966074, 44.9320166 ], [ 10.4964184, 44.9319179 ], [ 10.4963183, 44.9318656 ] ] ] } },
{ "type": "Feature", "properties": { "name": "Porto di Governolo di Roncoferraro", "name:en": null, "amenity": null, "building": null, "port": "cargo", "operator:type": null, "addr:full": null, "addr:city": null, "source": null, "name:it": null, "osm_id": 365768437, "osm_type": "ways_poly" }, "geometry": { "type": "Polygon", "coordinates": [ [ [ 10.9500292, 45.0943184 ], [ 10.9514796, 45.0934123 ], [ 10.9515699, 45.0933536 ], [ 10.9517667, 45.0934986 ], [ 10.9524794, 45.0938511 ], [ 10.9531709, 45.0941946 ], [ 10.9533117, 45.0947159 ], [ 10.9538794, 45.0947822 ], [ 10.9538392, 45.0950332 ], [ 10.9524054, 45.0953482 ], [ 10.9519754, 45.0953652 ], [ 10.9500292, 45.0943184 ] ] ] } },
{ "type": "Feature", "properties": { "name": "Terminal San Giorgio", "name:en": null, "amenity": null, "building": null, "port": "cargo", "operator:type": null, "addr:full": null, "addr:city": null, "source": null, "name:it": null, "osm_id": 219242460, "osm_type": "ways_poly" }, "geometry": { "type": "Polygon", "coordinates": [ [ [ 8.8836107, 44.407973 ], [ 8.8848085, 44.4077602 ], [ 8.8849757, 44.4077293 ], [ 8.8856101, 44.4041745 ], [ 8.8856543, 44.4041361 ], [ 8.887554, 44.4038099 ], [ 8.8876146, 44.4038525 ], [ 8.8870033, 44.4072639 ], [ 8.8873749, 44.4072817 ], [ 8.8881283, 44.407145 ], [ 8.8886367, 44.4086958 ], [ 8.8850142, 44.4095567 ], [ 8.8848485, 44.4095278 ], [ 8.8848009, 44.4094415 ], [ 8.8844423, 44.4095304 ], [ 8.884023, 44.4095448 ], [ 8.8836107, 44.407973 ] ] ] } },
{ "type": "Feature", "properties": { "name": "Terminal Forest", "name:en": null, "amenity": null, "building": null, "port": "cargo", "operator:type": null, "addr:full": null, "addr:city": null, "source": null, "name:it": null, "osm_id": 251618468, "osm_type": "ways_poly" }, "geometry": { "type": "Polygon", "coordinates": [ [ [ 8.8892451, 44.4052142 ], [ 8.8894902, 44.4036422 ], [ 8.8895477, 44.4035249 ], [ 8.8895527, 44.4034646 ], [ 8.8895924, 44.4034149 ], [ 8.8905666, 44.403237 ], [ 8.89017, 44.4052894 ], [ 8.8892451, 44.4052142 ] ] ] } },
{ "type": "Feature", "properties": { "name": "Stazione Marittima", "name:en": null, "amenity": "ferry_terminal", "building": "yes", "port": null, "operator:type": null, "addr:full": null, "addr:city": null, "source": null, "name:it": null, "osm_id": 60928542, "osm_type": "ways_poly" }, "geometry": { "type": "Polygon", "coordinates": [ [ [ 10.301788, 43.5545169 ], [ 10.3019738, 43.5544126 ], [ 10.3024233, 43.5548395 ], [ 10.3028347, 43.5552178 ], [ 10.3028537, 43.5552353 ], [ 10.3027512, 43.555293 ], [ 10.3026679, 43.5553397 ], [ 10.301788, 43.5545169 ] ] ] } },
{ "type": "Feature", "properties": { "name": null, "name:en": null, "amenity": "ferry_terminal", "building": null, "port": null, "operator:type": null, "addr:full": null, "addr:city": null, "source": null, "name:it": null, "osm_id": 128234186, "osm_type": "ways_poly" }, "geometry": { "type": "Polygon", "coordinates": [ [ [ 13.5802518, 45.7886784 ], [ 13.5802765, 45.7884714 ], [ 13.5802907, 45.7884197 ], [ 13.5803189, 45.7884209 ], [ 13.5803242, 45.7884579 ], [ 13.5803136, 45.7885577 ], [ 13.5802907, 45.7886821 ], [ 13.5802518, 45.7886784 ] ] ] } },
{ "type": "Feature", "properties": { "name": "Terminal Portitalia", "name:en": null, "amenity": null, "building": null, "port": "cargo", "operator:type": null, "addr:full": null, "addr:city": null, "source": null, "name:it": null, "osm_id": 542825092, "osm_type": "ways_poly" }, "geometry": { "type": "Polygon", "coordinates": [ [ [ 13.3614435, 38.1312682 ], [ 13.3614534, 38.1310676 ], [ 13.3615636, 38.1306536 ], [ 13.3616351, 38.1305141 ], [ 13.3617614, 38.1303922 ], [ 13.3619487, 38.130279 ], [ 13.3622415, 38.130199 ], [ 13.3627804, 38.130262 ], [ 13.362867, 38.1303535 ], [ 13.362762, 38.1309232 ], [ 13.3632318, 38.1309879 ], [ 13.3627355, 38.1335984 ], [ 13.3619192, 38.1335276 ], [ 13.3619231, 38.1333663 ], [ 13.361989, 38.1329889 ], [ 13.3620441, 38.132546 ], [ 13.3620089, 38.1322267 ], [ 13.3619408, 38.1319706 ], [ 13.3618443, 38.1317752 ], [ 13.361656, 38.131581 ], [ 13.3614678, 38.1313821 ], [ 13.3614435, 38.1312682 ] ] ] } },
{ "type": "Feature", "properties": { "name": "Porto industriale di Oristano", "name:en": null, "amenity": null, "building": null, "port": "cargo", "operator:type": null, "addr:full": null, "addr:city": null, "source": null, "name:it": null, "osm_id": 251515515, "osm_type": "ways_poly" }, "geometry": { "type": "Polygon", "coordinates": [ [ [ 8.5467637, 39.8666005 ], [ 8.5471252, 39.8660062 ], [ 8.5503802, 39.8671747 ], [ 8.5521156, 39.8638063 ], [ 8.5521642, 39.8634797 ], [ 8.5620848, 39.864572 ], [ 8.562083, 39.8646335 ], [ 8.5613922, 39.8683711 ], [ 8.5611377, 39.8688094 ], [ 8.5583947, 39.8686115 ], [ 8.5506637, 39.8679959 ], [ 8.5467637, 39.8666005 ] ] ] } },
{ "type": "Feature", "properties": { "name": "Porto di Chioggia Isola Saloni", "name:en": null, "amenity": null, "building": null, "port": "cargo", "operator:type": null, "addr:full": null, "addr:city": null, "source": null, "name:it": null, "osm_id": 365863154, "osm_type": "ways_poly" }, "geometry": { "type": "Polygon", "coordinates": [ [ [ 12.27318, 45.2207116 ], [ 12.273858, 45.2205864 ], [ 12.2739789, 45.2211002 ], [ 12.2740944, 45.2214256 ], [ 12.27423, 45.2216954 ], [ 12.2745416, 45.2222402 ], [ 12.2749412, 45.2228819 ], [ 12.2750072, 45.222998 ], [ 12.2752473, 45.2230213 ], [ 12.2754947, 45.2233673 ], [ 12.2754196, 45.2234951 ], [ 12.2753554, 45.2236423 ], [ 12.2754163, 45.2237324 ], [ 12.2757464, 45.2242912 ], [ 12.2759668, 45.2244081 ], [ 12.2760679, 45.2246546 ], [ 12.276156, 45.2247239 ], [ 12.2762597, 45.2247239 ], [ 12.276353, 45.2246819 ], [ 12.2765244, 45.2250771 ], [ 12.2769663, 45.2262048 ], [ 12.2764663, 45.2263024 ], [ 12.2757714, 45.2244835 ], [ 12.2743916, 45.2247562 ], [ 12.274968, 45.2262118 ], [ 12.2751106, 45.2263023 ], [ 12.2751846, 45.226503 ], [ 12.2751665, 45.2266038 ], [ 12.2748843, 45.2266107 ], [ 12.2748305, 45.2265974 ], [ 12.2748459, 45.226538 ], [ 12.2749311, 45.2265058 ], [ 12.2748876, 45.2263819 ], [ 12.2747759, 45.2262712 ], [ 12.2743661, 45.2262968 ], [ 12.2735559, 45.221877 ], [ 12.27318, 45.2207116 ] ] ] } },
{ "type": "Feature", "properties": { "name": "Intermodal Marine Terminal", "name:en": null, "amenity": null, "building": null, "port": "cargo", "operator:type": null, "addr:full": null, "addr:city": null, "source": null, "name:it": null, "osm_id": 219242456, "osm_type": "ways_poly" }, "geometry": { "type": "Polygon", "coordinates": [ [ [ 8.8753558, 44.4058935 ], [ 8.8795378, 44.4051478 ], [ 8.8797175, 44.4051639 ], [ 8.8790532, 44.4087981 ], [ 8.8810236, 44.4084466 ], [ 8.8816177, 44.4052049 ], [ 8.8821087, 44.4048311 ], [ 8.8820721, 44.4046913 ], [ 8.8836584, 44.4044057 ], [ 8.8837007, 44.4045058 ], [ 8.8830659, 44.4079625 ], [ 8.883266, 44.4079801 ], [ 8.8834643, 44.4079966 ], [ 8.8836107, 44.407973 ], [ 8.884023, 44.4095448 ], [ 8.8836964, 44.4096001 ], [ 8.8834362, 44.4089357 ], [ 8.8813544, 44.4093391 ], [ 8.8810741, 44.4093992 ], [ 8.8810318, 44.4092665 ], [ 8.8797998, 44.4094966 ], [ 8.8800618, 44.4102845 ], [ 8.8803354, 44.4102347 ], [ 8.880447, 44.4107005 ], [ 8.8804612, 44.4107357 ], [ 8.8804974, 44.4109069 ], [ 8.8796861, 44.4110536 ], [ 8.8792987, 44.4112722 ], [ 8.8789157, 44.4112844 ], [ 8.8785558, 44.4111982 ], [ 8.8784632, 44.4111103 ], [ 8.8782799, 44.4105353 ], [ 8.8776585, 44.4106294 ], [ 8.8775467, 44.4103278 ], [ 8.8767815, 44.4093207 ], [ 8.8766106, 44.4087703 ], [ 8.8768518, 44.4087209 ], [ 8.8760284, 44.4063145 ], [ 8.8755421, 44.4064118 ], [ 8.8753558, 44.4058935 ] ] ] } },
{ "type": "Feature", "properties": { "name": null, "name:en": null, "amenity": "ferry_terminal", "building": null, "port": null, "operator:type": null, "addr:full": null, "addr:city": null, "source": null, "name:it": null, "osm_id": 1229023556, "osm_type": "ways_poly" }, "geometry": { "type": "Polygon", "coordinates": [ [ [ 12.963172, 40.8945103 ], [ 12.9631781, 40.8944279 ], [ 12.9633228, 40.8942864 ], [ 12.9633448, 40.8942999 ], [ 12.9636654, 40.8942797 ], [ 12.9636686, 40.8943155 ], [ 12.9636833, 40.8943641 ], [ 12.9636919, 40.894454 ], [ 12.9635148, 40.8944783 ], [ 12.9632479, 40.8945068 ], [ 12.963172, 40.8945103 ] ] ] } },
{ "type": "Feature", "properties": { "name": null, "name:en": null, "amenity": null, "building": null, "port": "container", "operator:type": null, "addr:full": null, "addr:city": null, "source": null, "name:it": null, "osm_id": 223292193, "osm_type": "ways_poly" }, "geometry": { "type": "Polygon", "coordinates": [ [ [ 14.2817166, 40.8430242 ], [ 14.2819062, 40.8429358 ], [ 14.2818489, 40.8427923 ], [ 14.2819526, 40.8426288 ], [ 14.2836991, 40.8420493 ], [ 14.2836192, 40.8419406 ], [ 14.2835393, 40.8418319 ], [ 14.2833668, 40.841508 ], [ 14.2831462, 40.8415881 ], [ 14.2829852, 40.8413032 ], [ 14.2850547, 40.8404918 ], [ 14.2841777, 40.8379248 ], [ 14.2859222, 40.837206 ], [ 14.2868126, 40.8399892 ], [ 14.2894724, 40.838891 ], [ 14.2906665, 40.8405506 ], [ 14.2919061, 40.8400433 ], [ 14.2921928, 40.8398798 ], [ 14.2922634, 40.839773 ], [ 14.2924884, 40.8401134 ], [ 14.2904724, 40.840891 ], [ 14.2894943, 40.8409277 ], [ 14.2882371, 40.8406207 ], [ 14.2878533, 40.840589 ], [ 14.2874519, 40.8407325 ], [ 14.2871894, 40.8409711 ], [ 14.2869688, 40.8413215 ], [ 14.2864176, 40.8416253 ], [ 14.2861759, 40.8418802 ], [ 14.2854063, 40.8426 ], [ 14.2851482, 40.8423046 ], [ 14.2844557, 40.8426234 ], [ 14.2843432, 40.8424548 ], [ 14.28328, 40.8428903 ], [ 14.2819853, 40.8433092 ], [ 14.2817166, 40.8430242 ] ] ] } },
{ "type": "Feature", "properties": { "name": "RTC", "name:en": null, "amenity": null, "building": null, "port": "cargo", "operator:type": null, "addr:full": null, "addr:city": null, "source": null, "name:it": null, "osm_id": 362613600, "osm_type": "ways_poly" }, "geometry": { "type": "Polygon", "coordinates": [ [ [ 11.7700774, 42.1068108 ], [ 11.7727143, 42.1041329 ], [ 11.7735912, 42.1046062 ], [ 11.7741443, 42.1040453 ], [ 11.7763233, 42.1052354 ], [ 11.7755937, 42.1059501 ], [ 11.7736829, 42.1079588 ], [ 11.7734553, 42.1088094 ], [ 11.7727641, 42.1084112 ], [ 11.7728373, 42.1083087 ], [ 11.7700774, 42.1068108 ] ] ] } },
{ "type": "Feature", "properties": { "name": "Porto di Cremona", "name:en": null, "amenity": null, "building": null, "port": "cargo", "operator:type": null, "addr:full": null, "addr:city": null, "source": null, "name:it": null, "osm_id": 365868541, "osm_type": "ways_poly" }, "geometry": { "type": "Polygon", "coordinates": [ [ [ 9.9704399, 45.1437192 ], [ 9.9706857, 45.1433725 ], [ 9.9714178, 45.1430141 ], [ 9.9767409, 45.1426269 ], [ 9.9767529, 45.1427584 ], [ 9.974659, 45.1445088 ], [ 9.9753363, 45.1449141 ], [ 9.9780203, 45.1427155 ], [ 9.9798021, 45.1422749 ], [ 9.9804319, 45.1429689 ], [ 9.9803792, 45.1431116 ], [ 9.9798438, 45.1434077 ], [ 9.9786072, 45.1444567 ], [ 9.9787407, 45.1445271 ], [ 9.978212, 45.1449475 ], [ 9.9774852, 45.1455318 ], [ 9.9772143, 45.1457496 ], [ 9.9771024, 45.1458222 ], [ 9.9767357, 45.1461404 ], [ 9.9766552, 45.1460881 ], [ 9.9757842, 45.1468112 ], [ 9.9747565, 45.1475678 ], [ 9.9743565, 45.1477318 ], [ 9.9739853, 45.1478208 ], [ 9.9737505, 45.1478493 ], [ 9.9731884, 45.1478652 ], [ 9.9726624, 45.1477651 ], [ 9.971377, 45.1472509 ], [ 9.9707829, 45.1471191 ], [ 9.9707299, 45.1465934 ], [ 9.9704677, 45.1439948 ], [ 9.9704399, 45.1437192 ] ] ] } },
{ "type": "Feature", "properties": { "name": "Porto Industriale Cocciani", "name:en": null, "amenity": null, "building": null, "port": "cargo", "operator:type": null, "addr:full": null, "addr:city": null, "source": null, "name:it": null, "osm_id": 238332073, "osm_type": "ways_poly" }, "geometry": { "type": "Polygon", "coordinates": [ [ [ 9.5364228, 40.9294136 ], [ 9.5378446, 40.9275573 ], [ 9.537568, 40.9274339 ], [ 9.5378146, 40.9271071 ], [ 9.5380844, 40.9272225 ], [ 9.539122, 40.9258675 ], [ 9.5421999, 40.9262691 ], [ 9.5413631, 40.9269946 ], [ 9.5402634, 40.927849 ], [ 9.5398879, 40.9278449 ], [ 9.5396196, 40.9281489 ], [ 9.5386862, 40.9293615 ], [ 9.5381659, 40.9300538 ], [ 9.5365985, 40.9294294 ], [ 9.5365652, 40.9294682 ], [ 9.5364228, 40.9294136 ] ] ] } },
{ "type": "Feature", "properties": { "name": "Porto di Chioggia Val da Rio", "name:en": null, "amenity": null, "building": null, "port": "cargo", "operator:type": null, "addr:full": null, "addr:city": null, "source": null, "name:it": null, "osm_id": 365863155, "osm_type": "ways_poly" }, "geometry": { "type": "Polygon", "coordinates": [ [ [ 12.2610518, 45.2116984 ], [ 12.2613723, 45.2092899 ], [ 12.2622589, 45.2078212 ], [ 12.2626174, 45.2071311 ], [ 12.2630867, 45.2062556 ], [ 12.2639337, 45.205804 ], [ 12.264091, 45.2058072 ], [ 12.2640982, 45.2057056 ], [ 12.2649537, 45.2055526 ], [ 12.2658552, 45.2055688 ], [ 12.2662297, 45.2056103 ], [ 12.267058, 45.2042792 ], [ 12.2669577, 45.2041469 ], [ 12.2672843, 45.2032869 ], [ 12.2676858, 45.2023176 ], [ 12.2680161, 45.202178 ], [ 12.2680993, 45.2021822 ], [ 12.2682876, 45.2021515 ], [ 12.2705437, 45.2024702 ], [ 12.2709043, 45.2025141 ], [ 12.27114, 45.2024542 ], [ 12.2711026, 45.2026788 ], [ 12.271111, 45.2029466 ], [ 12.2712769, 45.2032015 ], [ 12.2714964, 45.2033641 ], [ 12.2717939, 45.2034574 ], [ 12.2722159, 45.2035081 ], [ 12.2726672, 45.2034733 ], [ 12.2729354, 45.2035767 ], [ 12.2733138, 45.2038283 ], [ 12.273397, 45.2042522 ], [ 12.2724532, 45.2041856 ], [ 12.2721618, 45.2051324 ], [ 12.2724949, 45.2052231 ], [ 12.2731876, 45.2052951 ], [ 12.2731308, 45.2053884 ], [ 12.2726917, 45.2060178 ], [ 12.2725528, 45.2060088 ], [ 12.2724653, 45.2060961 ], [ 12.2729348, 45.2064137 ], [ 12.2727112, 45.2064453 ], [ 12.2724515, 45.2064719 ], [ 12.2709867, 45.2062965 ], [ 12.26952, 45.2060505 ], [ 12.2694722, 45.2061255 ], [ 12.2692404, 45.2071257 ], [ 12.2691995, 45.2073023 ], [ 12.2690002, 45.2072731 ], [ 12.2689532, 45.2073634 ], [ 12.2660902, 45.2069407 ], [ 12.2657472, 45.2080827 ], [ 12.2640528, 45.2078373 ], [ 12.2628837, 45.2118687 ], [ 12.2610518, 45.2116984 ] ] ] } },
{ "type": "Feature", "properties": { "name": "Stazione Marittima Olbia", "name:en": null, "amenity": "ferry_terminal", "building": "transportation", "port": null, "operator:type": null, "addr:full": null, "addr:city": null, "source": null, "name:it": null, "osm_id": 1330391043, "osm_type": "ways_poly" }, "geometry": { "type": "Polygon", "coordinates": [ [ [ 9.5207532, 40.9240709 ], [ 9.5207555, 40.9240079 ], [ 9.5207801, 40.9239477 ], [ 9.5208253, 40.9238948 ], [ 9.5208877, 40.923853 ], [ 9.5209626, 40.9238254 ], [ 9.5210447, 40.9238141 ], [ 9.5211277, 40.9238198 ], [ 9.5211363, 40.9238223 ], [ 9.5211419, 40.9238141 ], [ 9.5211744, 40.9237703 ], [ 9.521252, 40.9236987 ], [ 9.5213666, 40.923666 ], [ 9.5214003, 40.9236702 ], [ 9.5214875, 40.9236809 ], [ 9.5215823, 40.9237395 ], [ 9.5216068, 40.9237885 ], [ 9.5216395, 40.9238053 ], [ 9.5217068, 40.9238061 ], [ 9.5217644, 40.9238322 ], [ 9.5217971, 40.9238767 ], [ 9.521796, 40.9239275 ], [ 9.5217614, 40.923971 ], [ 9.5217026, 40.9239957 ], [ 9.5216354, 40.9239949 ], [ 9.5216405, 40.9240261 ], [ 9.5217519, 40.9240342 ], [ 9.5218575, 40.9240872 ], [ 9.5219178, 40.9241714 ], [ 9.521918, 40.9242093 ], [ 9.5219184, 40.9242688 ], [ 9.5218549, 40.9243568 ], [ 9.5218193, 40.9243807 ], [ 9.5217753, 40.924402 ], [ 9.5217892, 40.9244363 ], [ 9.5216792, 40.9244748 ], [ 9.5216649, 40.9244451 ], [ 9.5216139, 40.9244471 ], [ 9.5215693, 40.9244363 ], [ 9.5215103, 40.924416 ], [ 9.5214727, 40.9243957 ], [ 9.5214342, 40.9244248 ], [ 9.5213833, 40.9243904 ], [ 9.521352, 40.9243532 ], [ 9.5213242, 40.9243134 ], [ 9.5213145, 40.9242782 ], [ 9.5213055, 40.9242282 ], [ 9.5213151, 40.9241725 ], [ 9.5212604, 40.9242201 ], [ 9.5211908, 40.9242548 ], [ 9.5211114, 40.924274 ], [ 9.5210281, 40.9242764 ], [ 9.520947, 40.9242617 ], [ 9.5208741, 40.9242311 ], [ 9.5208148, 40.9241868 ], [ 9.5207735, 40.924132 ], [ 9.5207532, 40.9240709 ] ] ] } },
{ "type": "Feature", "properties": { "name": null, "name:en": null, "amenity": null, "building": null, "port": "fishing", "operator:type": null, "addr:full": null, "addr:city": null, "source": null, "name:it": null, "osm_id": 1295809536, "osm_type": "ways_poly" }, "geometry": { "type": "Polygon", "coordinates": [ [ [ 14.481113, 42.2874665 ], [ 14.4811231, 42.2874366 ], [ 14.4812907, 42.2873128 ], [ 14.4813261, 42.2872705 ], [ 14.4819797, 42.2869674 ], [ 14.4824251, 42.2867699 ], [ 14.4825545, 42.2867125 ], [ 14.4827353, 42.2869272 ], [ 14.4826671, 42.2869309 ], [ 14.4815249, 42.2874637 ], [ 14.4812949, 42.2875132 ], [ 14.481113, 42.2874665 ] ] ] } },
{ "type": "Feature", "properties": { "name": "Stazione Marittima", "name:en": null, "amenity": "ferry_terminal", "building": "public", "port": null, "operator:type": null, "addr:full": null, "addr:city": null, "source": null, "name:it": null, "osm_id": 277184175, "osm_type": "ways_poly" }, "geometry": { "type": "Polygon", "coordinates": [ [ [ 9.1104738, 39.2127962 ], [ 9.110673, 39.2126838 ], [ 9.1111938, 39.213238 ], [ 9.1109946, 39.2133504 ], [ 9.1104738, 39.2127962 ] ] ] } },
{ "type": "Feature", "properties": { "name": null, "name:en": null, "amenity": "ferry_terminal", "building": "yes", "port": null, "operator:type": null, "addr:full": null, "addr:city": null, "source": null, "name:it": null, "osm_id": 816912461, "osm_type": "ways_poly" }, "geometry": { "type": "Polygon", "coordinates": [ [ [ 12.80777, 45.5807091 ], [ 12.8077874, 45.5806896 ], [ 12.8083009, 45.5810453 ], [ 12.8082729, 45.5810587 ], [ 12.80777, 45.5807091 ] ] ] } },
{ "type": "Feature", "properties": { "name": "Burano", "name:en": null, "amenity": "ferry_terminal", "building": null, "port": null, "operator:type": null, "addr:full": null, "addr:city": null, "source": null, "name:it": null, "osm_id": 175898063, "osm_type": "ways_poly" }, "geometry": { "type": "Polygon", "coordinates": [ [ [ 12.4161005, 45.487493 ], [ 12.4163154, 45.4874778 ], [ 12.4162779, 45.487374 ], [ 12.4163976, 45.4873515 ], [ 12.4164276, 45.4873458 ], [ 12.416453, 45.4873416 ], [ 12.4165543, 45.4873249 ], [ 12.4166018, 45.4874559 ], [ 12.4168294, 45.4874404 ], [ 12.4168312, 45.4874896 ], [ 12.4167888, 45.4874921 ], [ 12.4166951, 45.4874977 ], [ 12.416682, 45.4874985 ], [ 12.416658, 45.4875066 ], [ 12.4166173, 45.4875089 ], [ 12.4165698, 45.4875116 ], [ 12.4165702, 45.487522 ], [ 12.4163899, 45.487534 ], [ 12.4163886, 45.4875278 ], [ 12.4163357, 45.4875291 ], [ 12.4162475, 45.4875341 ], [ 12.4161589, 45.4875389 ], [ 12.416108, 45.4875416 ], [ 12.4161005, 45.487493 ] ] ] } },
{ "type": "Feature", "properties": { "name": "MSC Terminal", "name:en": null, "amenity": "ferry_terminal", "building": null, "port": null, "operator:type": null, "addr:full": null, "addr:city": null, "source": "https://www.msccruises.com/int/our-cruises/destinations/mediterranean/italy/genoa", "name:it": null, "osm_id": 1333749056, "osm_type": "ways_poly" }, "geometry": { "type": "Polygon", "coordinates": [ [ [ 8.9178169, 44.4134363 ], [ 8.9178286, 44.4125629 ], [ 8.9178494, 44.4110007 ], [ 8.9182041, 44.4109703 ], [ 8.9184725, 44.4109373 ], [ 8.9187466, 44.4122159 ], [ 8.9189773, 44.4135232 ], [ 8.9187889, 44.4135434 ], [ 8.9187576, 44.4133655 ], [ 8.9187962, 44.4133621 ], [ 8.9187877, 44.4133075 ], [ 8.918738, 44.4133118 ], [ 8.9185561, 44.4123885 ], [ 8.9182866, 44.4124148 ], [ 8.9184366, 44.4131469 ], [ 8.9184749, 44.4133339 ], [ 8.9184268, 44.4133384 ], [ 8.9184366, 44.41339 ], [ 8.9184389, 44.4134026 ], [ 8.9184894, 44.4133975 ], [ 8.9185515, 44.4136771 ], [ 8.9184364, 44.4136897 ], [ 8.9183799, 44.4133972 ], [ 8.9181089, 44.4134263 ], [ 8.9178169, 44.4134363 ] ] ] } },
{ "type": "Feature", "properties": { "name": "Porto Passeggeri", "name:en": null, "amenity": "ferry_terminal", "building": null, "port": null, "operator:type": null, "addr:full": null, "addr:city": null, "source": null, "name:it": null, "osm_id": 148700345, "osm_type": "ways_poly" }, "geometry": { "type": "Polygon", "coordinates": [ [ [ 8.9067933, 44.4081409 ], [ 8.9070497, 44.4077734 ], [ 8.9074078, 44.4077777 ], [ 8.9074498, 44.4073729 ], [ 8.9078749, 44.4072941 ], [ 8.9110778, 44.4066515 ], [ 8.9127631, 44.4063077 ], [ 8.9128116, 44.4064587 ], [ 8.9100374, 44.407012 ], [ 8.9103872, 44.407941 ], [ 8.9130012, 44.4074418 ], [ 8.9131543, 44.4078541 ], [ 8.9131899, 44.4079501 ], [ 8.9149099, 44.4076067 ], [ 8.9149609, 44.4077329 ], [ 8.9148188, 44.4083014 ], [ 8.9122677, 44.4088096 ], [ 8.912378, 44.4090869 ], [ 8.9097619, 44.409616 ], [ 8.909828, 44.409785 ], [ 8.9099543, 44.4100967 ], [ 8.9100143, 44.4100815 ], [ 8.9101074, 44.4103266 ], [ 8.9102265, 44.4103014 ], [ 8.9103076, 44.4105078 ], [ 8.9103546, 44.410623 ], [ 8.9104123, 44.4106115 ], [ 8.914355, 44.4098287 ], [ 8.9144186, 44.4098287 ], [ 8.9146635, 44.409932 ], [ 8.9146965, 44.409966 ], [ 8.9147406, 44.4100923 ], [ 8.9147826, 44.4100863 ], [ 8.9148317, 44.4101978 ], [ 8.9131362, 44.410562 ], [ 8.9133265, 44.410967 ], [ 8.9135018, 44.4109264 ], [ 8.9135344, 44.4109976 ], [ 8.9133419, 44.4110455 ], [ 8.9134154, 44.4112066 ], [ 8.9135322, 44.4112214 ], [ 8.9139792, 44.410888 ], [ 8.9140513, 44.4109351 ], [ 8.9122109, 44.4122896 ], [ 8.9125335, 44.4125078 ], [ 8.9123794, 44.4126232 ], [ 8.9129524, 44.4128738 ], [ 8.9130977, 44.412775 ], [ 8.9132617, 44.4128887 ], [ 8.9134055, 44.4129937 ], [ 8.9134424, 44.4129671 ], [ 8.9160329, 44.4110962 ], [ 8.9162737, 44.4111238 ], [ 8.9157986, 44.4136468 ], [ 8.9159829, 44.4136642 ], [ 8.9161908, 44.413682 ], [ 8.916093, 44.4139342 ], [ 8.916852, 44.4140894 ], [ 8.9171935, 44.4141192 ], [ 8.9178076, 44.4141265 ], [ 8.9178169, 44.4134363 ], [ 8.9178286, 44.4125629 ], [ 8.9178494, 44.4110007 ], [ 8.9182041, 44.4109703 ], [ 8.9184725, 44.4109373 ], [ 8.9187466, 44.4122159 ], [ 8.919281, 44.4134867 ], [ 8.9195505, 44.4143221 ], [ 8.9195691, 44.4144508 ], [ 8.919871, 44.4148259 ], [ 8.9195182, 44.4149833 ], [ 8.9195168, 44.4150356 ], [ 8.9186592, 44.4149547 ], [ 8.9182082, 44.4148365 ], [ 8.9179199, 44.4147734 ], [ 8.9155002, 44.4142761 ], [ 8.9145203, 44.4141019 ], [ 8.9136705, 44.4139144 ], [ 8.9130705, 44.4136805 ], [ 8.9125015, 44.4134013 ], [ 8.9117574, 44.4130471 ], [ 8.9115438, 44.4128178 ], [ 8.910576, 44.4124056 ], [ 8.9098951, 44.4121574 ], [ 8.9098311, 44.412127 ], [ 8.9097358, 44.4120707 ], [ 8.9096728, 44.4120197 ], [ 8.9095106, 44.4118499 ], [ 8.9093163, 44.4116664 ], [ 8.9091097, 44.4114975 ], [ 8.9074313, 44.4095635 ], [ 8.9067933, 44.4081409 ] ] ] } },
{ "type": "Feature", "properties": { "name": "Banchina Margreth Porto Nogaro", "name:en": null, "amenity": null, "building": null, "port": "cargo", "operator:type": null, "addr:full": null, "addr:city": null, "source": null, "name:it": null, "osm_id": 365868532, "osm_type": "ways_poly" }, "geometry": { "type": "Polygon", "coordinates": [ [ [ 13.2263411, 45.7995867 ], [ 13.2273028, 45.7972055 ], [ 13.2267973, 45.7968702 ], [ 13.228694, 45.7917575 ], [ 13.2315864, 45.7923805 ], [ 13.2313789, 45.7926349 ], [ 13.2316126, 45.7926699 ], [ 13.2308687, 45.7941482 ], [ 13.2299172, 45.7963188 ], [ 13.2281935, 45.8000732 ], [ 13.2263411, 45.7995867 ] ] ] } },
{ "type": "Feature", "properties": { "name": "LSCT Terminal Angelo Ravano", "name:en": null, "amenity": null, "building": null, "port": "cargo", "operator:type": null, "addr:full": null, "addr:city": null, "source": null, "name:it": null, "osm_id": 222609178, "osm_type": "ways_poly" }, "geometry": { "type": "Polygon", "coordinates": [ [ [ 9.8507085, 44.107717 ], [ 9.8538, 44.1068374 ], [ 9.8540607, 44.1069472 ], [ 9.853919, 44.107378 ], [ 9.8555004, 44.1082328 ], [ 9.8550989, 44.1086274 ], [ 9.8548307, 44.1089148 ], [ 9.854792, 44.1093875 ], [ 9.8546051, 44.1095303 ], [ 9.8541004, 44.1099954 ], [ 9.8537704, 44.1100906 ], [ 9.8537427, 44.1100986 ], [ 9.8526422, 44.1101782 ], [ 9.8523206, 44.1102327 ], [ 9.8519096, 44.1095822 ], [ 9.8507085, 44.107717 ] ] ] } },
{ "type": "Feature", "properties": { "name": "Porto di Monfalcone", "name:en": null, "amenity": null, "building": null, "port": "cargo", "operator:type": null, "addr:full": null, "addr:city": null, "source": null, "name:it": null, "osm_id": 115571589, "osm_type": "ways_poly" }, "geometry": { "type": "Polygon", "coordinates": [ [ [ 13.5476353, 45.793188 ], [ 13.5569641, 45.7825594 ], [ 13.5570823, 45.7826083 ], [ 13.5576814, 45.7828561 ], [ 13.5605568, 45.7840455 ], [ 13.561753, 45.783836 ], [ 13.562878, 45.7836424 ], [ 13.5653151, 45.7842905 ], [ 13.5645795, 45.785844 ], [ 13.5642221, 45.7858913 ], [ 13.5643376, 45.7862314 ], [ 13.5643585, 45.7863884 ], [ 13.5643209, 45.786509 ], [ 13.5640121, 45.7871036 ], [ 13.5635409, 45.7881303 ], [ 13.5632287, 45.7886207 ], [ 13.5629436, 45.789128 ], [ 13.5628411, 45.7894289 ], [ 13.562817, 45.789513 ], [ 13.5627844, 45.7897931 ], [ 13.5627248, 45.7897923 ], [ 13.5627184, 45.7900356 ], [ 13.5627379, 45.7901347 ], [ 13.5628596, 45.7907517 ], [ 13.563034, 45.7915749 ], [ 13.5619814, 45.7916933 ], [ 13.5617444, 45.7917728 ], [ 13.5617469, 45.7919829 ], [ 13.5616684, 45.7921636 ], [ 13.5615419, 45.7922626 ], [ 13.5614083, 45.7923662 ], [ 13.5611773, 45.7924269 ], [ 13.5589831, 45.7927005 ], [ 13.5560137, 45.7914584 ], [ 13.5556639, 45.7913121 ], [ 13.5528628, 45.7901355 ], [ 13.5527184, 45.7901061 ], [ 13.5524703, 45.7900556 ], [ 13.5521749, 45.7900617 ], [ 13.5519941, 45.7901171 ], [ 13.5501032, 45.792298 ], [ 13.5504461, 45.7924485 ], [ 13.549816, 45.7930981 ], [ 13.5497038, 45.7932213 ], [ 13.5499076, 45.7933307 ], [ 13.5499407, 45.7934547 ], [ 13.5498046, 45.7939253 ], [ 13.5500087, 45.7945154 ], [ 13.5498713, 45.7945957 ], [ 13.5498218, 45.794829 ], [ 13.5497764, 45.7947419 ], [ 13.5496539, 45.7947988 ], [ 13.5497041, 45.7948625 ], [ 13.5494632, 45.7949528 ], [ 13.5491428, 45.7945345 ], [ 13.5487668, 45.7940571 ], [ 13.5485301, 45.7937406 ], [ 13.5483451, 45.7936116 ], [ 13.5481026, 45.7934626 ], [ 13.5479877, 45.79343 ], [ 13.5480182, 45.7933912 ], [ 13.5478676, 45.7933082 ], [ 13.5476353, 45.793188 ] ] ] } },
{ "type": "Feature", "properties": { "name": null, "name:en": null, "amenity": "ferry_terminal", "building": "roof", "port": null, "operator:type": null, "addr:full": null, "addr:city": null, "source": null, "name:it": null, "osm_id": 1078338483, "osm_type": "ways_poly" }, "geometry": { "type": "Polygon", "coordinates": [ [ [ 12.2422743, 44.6748029 ], [ 12.2422852, 44.6747656 ], [ 12.2423571, 44.6747762 ], [ 12.2423767, 44.6747791 ], [ 12.2423548, 44.6748539 ], [ 12.2423386, 44.6748515 ], [ 12.2423106, 44.6748473 ], [ 12.2423216, 44.6748099 ], [ 12.2422743, 44.6748029 ] ] ] } },
{ "type": "Feature", "properties": { "name": null, "name:en": null, "amenity": "ferry_terminal", "building": "roof", "port": null, "operator:type": null, "addr:full": null, "addr:city": null, "source": null, "name:it": null, "osm_id": 1137395390, "osm_type": "ways_poly" }, "geometry": { "type": "Polygon", "coordinates": [ [ [ 12.2421786, 44.6753934 ], [ 12.2421827, 44.6753671 ], [ 12.2422282, 44.6753707 ], [ 12.2422241, 44.675397 ], [ 12.2421786, 44.6753934 ] ] ] } },
{ "type": "Feature", "properties": { "name": null, "name:en": null, "amenity": "ferry_terminal", "building": "yes", "port": null, "operator:type": null, "addr:full": null, "addr:city": null, "source": null, "name:it": null, "osm_id": 243165544, "osm_type": "ways_poly" }, "geometry": { "type": "Polygon", "coordinates": [ [ [ 10.6920459, 45.4405003 ], [ 10.6920623, 45.4404087 ], [ 10.6920729, 45.4403497 ], [ 10.692138, 45.4403554 ], [ 10.6921272, 45.4404159 ], [ 10.6921111, 45.440506 ], [ 10.6920459, 45.4405003 ] ] ] } },
{ "type": "Feature", "properties": { "name": "Terminal SECH", "name:en": null, "amenity": null, "building": null, "port": "cargo", "operator:type": null, "addr:full": null, "addr:city": null, "source": null, "name:it": null, "osm_id": 148457415, "osm_type": "ways_poly" }, "geometry": { "type": "Polygon", "coordinates": [ [ [ 8.9072569, 44.4057273 ], [ 8.9072642, 44.4055811 ], [ 8.907331, 44.4054357 ], [ 8.9075524, 44.4051529 ], [ 8.9078293, 44.4049156 ], [ 8.9080536, 44.4047588 ], [ 8.908525, 44.404535 ], [ 8.9084371, 44.4044197 ], [ 8.9089756, 44.4041971 ], [ 8.909618, 44.4040179 ], [ 8.9096069, 44.4039939 ], [ 8.9137046, 44.4031487 ], [ 8.9139921, 44.4030674 ], [ 8.9142762, 44.4029592 ], [ 8.9145918, 44.4027786 ], [ 8.914742, 44.4027953 ], [ 8.9149829, 44.4027439 ], [ 8.915758, 44.402552 ], [ 8.91583, 44.4025659 ], [ 8.9158715, 44.4025896 ], [ 8.9160266, 44.4029199 ], [ 8.9160958, 44.4029061 ], [ 8.9161954, 44.4029931 ], [ 8.9162204, 44.4030663 ], [ 8.9163029, 44.4030607 ], [ 8.9164525, 44.4033695 ], [ 8.9171535, 44.4032235 ], [ 8.9172632, 44.4033632 ], [ 8.9173165, 44.4033811 ], [ 8.9183327, 44.4031584 ], [ 8.9186375, 44.403912 ], [ 8.9123335, 44.4052335 ], [ 8.91264, 44.4060199 ], [ 8.9127631, 44.4063077 ], [ 8.9110778, 44.4066515 ], [ 8.910902, 44.4062263 ], [ 8.9107497, 44.4062574 ], [ 8.9106209, 44.4059382 ], [ 8.9105473, 44.4059475 ], [ 8.910481, 44.4060178 ], [ 8.9101722, 44.4061212 ], [ 8.9098578, 44.4061947 ], [ 8.9078172, 44.406586 ], [ 8.9076064, 44.4065971 ], [ 8.9075878, 44.4065004 ], [ 8.9075119, 44.4062778 ], [ 8.9073995, 44.4058749 ], [ 8.9072706, 44.4058958 ], [ 8.9072569, 44.4057273 ] ] ] } },
{ "type": "Feature", "properties": { "name": "SAAR", "name:en": null, "amenity": null, "building": null, "port": "cargo", "operator:type": null, "addr:full": null, "addr:city": null, "source": null, "name:it": null, "osm_id": 251618466, "osm_type": "ways_poly" }, "geometry": { "type": "Polygon", "coordinates": [ [ [ 8.9159093, 44.4020456 ], [ 8.916203, 44.4020354 ], [ 8.9163312, 44.4023147 ], [ 8.9167389, 44.4022427 ], [ 8.9166884, 44.4021506 ], [ 8.9168445, 44.4021255 ], [ 8.9169951, 44.4020778 ], [ 8.9178235, 44.4018928 ], [ 8.9179181, 44.4018995 ], [ 8.9181162, 44.4019466 ], [ 8.9181695, 44.4020288 ], [ 8.9181901, 44.4021958 ], [ 8.9182088, 44.4023829 ], [ 8.9182007, 44.4025357 ], [ 8.9180892, 44.4025565 ], [ 8.9183327, 44.4031584 ], [ 8.9173165, 44.4033811 ], [ 8.9172632, 44.4033632 ], [ 8.9171535, 44.4032235 ], [ 8.9164525, 44.4033695 ], [ 8.9163029, 44.4030607 ], [ 8.9159093, 44.4020456 ] ] ] } },
{ "type": "Feature", "properties": { "name": "Silomar", "name:en": null, "amenity": null, "building": null, "port": "cargo", "operator:type": null, "addr:full": null, "addr:city": null, "source": null, "name:it": null, "osm_id": 251618467, "osm_type": "ways_poly" }, "geometry": { "type": "Polygon", "coordinates": [ [ [ 8.8978396, 44.4056113 ], [ 8.8979662, 44.4055779 ], [ 8.8986795, 44.4054454 ], [ 8.8989379, 44.4053962 ], [ 8.9003912, 44.4051159 ], [ 8.9004604, 44.4053368 ], [ 8.9006784, 44.406077 ], [ 8.8982042, 44.4065456 ], [ 8.8978853, 44.4057457 ], [ 8.8978396, 44.4056113 ] ] ] } },
{ "type": "Feature", "properties": { "name": "Terminal Frutta", "name:en": null, "amenity": null, "building": null, "port": "cargo", "operator:type": null, "addr:full": null, "addr:city": null, "source": null, "name:it": null, "osm_id": 251618469, "osm_type": "ways_poly" }, "geometry": { "type": "Polygon", "coordinates": [ [ [ 8.8888488, 44.407401 ], [ 8.8889275, 44.407001 ], [ 8.8892451, 44.4052142 ], [ 8.89017, 44.4052894 ], [ 8.8905666, 44.403237 ], [ 8.8914777, 44.4030744 ], [ 8.8915657, 44.4031309 ], [ 8.8909218, 44.4066298 ], [ 8.8909012, 44.4066617 ], [ 8.8906444, 44.406644 ], [ 8.8905336, 44.4068269 ], [ 8.8906564, 44.4069552 ], [ 8.890836, 44.407195 ], [ 8.8910329, 44.4076558 ], [ 8.890579, 44.4077673 ], [ 8.8895276, 44.4077225 ], [ 8.889487, 44.4074827 ], [ 8.8888488, 44.407401 ] ] ] } },
{ "type": "Feature", "properties": { "name": "Sampierdarena Olii srl", "name:en": null, "amenity": null, "building": null, "port": "cargo", "operator:type": null, "addr:full": null, "addr:city": null, "source": null, "name:it": null, "osm_id": 254217392, "osm_type": "ways_poly" }, "geometry": { "type": "Polygon", "coordinates": [ [ [ 8.8908228, 44.4068836 ], [ 8.8909012, 44.4066617 ], [ 8.8909218, 44.4066298 ], [ 8.8917572, 44.4064759 ], [ 8.8921454, 44.4074712 ], [ 8.8922527, 44.4077637 ], [ 8.8915837, 44.4078593 ], [ 8.8914168, 44.4078672 ], [ 8.8913167, 44.4078617 ], [ 8.89126, 44.4078367 ], [ 8.8912142, 44.4078031 ], [ 8.8911478, 44.407671 ], [ 8.8909778, 44.4071555 ], [ 8.8908634, 44.4070474 ], [ 8.8908228, 44.4068836 ] ] ] } },
{ "type": "Feature", "properties": { "name": "Genoa Metal Terminal", "name:en": null, "amenity": null, "building": null, "port": "cargo", "operator:type": null, "addr:full": null, "addr:city": null, "source": null, "name:it": null, "osm_id": 255067276, "osm_type": "ways_poly" }, "geometry": { "type": "Polygon", "coordinates": [ [ [ 8.8917572, 44.4064759 ], [ 8.8928527, 44.4062771 ], [ 8.8934839, 44.4027834 ], [ 8.8935666, 44.4027013 ], [ 8.8951517, 44.4024216 ], [ 8.8952297, 44.4024679 ], [ 8.894566, 44.405974 ], [ 8.8946059, 44.4059935 ], [ 8.8948188, 44.405952 ], [ 8.894862, 44.4060616 ], [ 8.8946271, 44.4061135 ], [ 8.8945759, 44.4061668 ], [ 8.8944737, 44.4063252 ], [ 8.8946922, 44.4069322 ], [ 8.8938525, 44.4071557 ], [ 8.8929921, 44.4073185 ], [ 8.8921454, 44.4074712 ], [ 8.8917572, 44.4064759 ] ] ] } },
{ "type": "Feature", "properties": { "name": "Porto di Mantova Valdaro", "name:en": null, "amenity": null, "building": null, "port": "cargo", "operator:type": null, "addr:full": null, "addr:city": null, "source": null, "name:it": null, "osm_id": 365768438, "osm_type": "ways_poly" }, "geometry": { "type": "Polygon", "coordinates": [ [ [ 10.8538319, 45.1286246 ], [ 10.854903, 45.1279011 ], [ 10.856461, 45.1278555 ], [ 10.8588321, 45.1300554 ], [ 10.8590693, 45.1302628 ], [ 10.8593293, 45.1301128 ], [ 10.8616347, 45.130105 ], [ 10.8630147, 45.1318151 ], [ 10.8632952, 45.1317216 ], [ 10.8628875, 45.1311615 ], [ 10.8633864, 45.1309798 ], [ 10.8638799, 45.1316081 ], [ 10.864028, 45.1315488 ], [ 10.8633371, 45.1306378 ], [ 10.8615282, 45.1283027 ], [ 10.8610019, 45.1275532 ], [ 10.8620618, 45.1269181 ], [ 10.8629476, 45.1262495 ], [ 10.8650553, 45.1289917 ], [ 10.8657324, 45.1298492 ], [ 10.8657343, 45.1298878 ], [ 10.8657422, 45.1300426 ], [ 10.8656149, 45.1302464 ], [ 10.8650114, 45.1308097 ], [ 10.8649624, 45.1310013 ], [ 10.8650517, 45.1312322 ], [ 10.86528, 45.1314757 ], [ 10.8652977, 45.1317105 ], [ 10.8649421, 45.1319409 ], [ 10.864456, 45.1319728 ], [ 10.8642317, 45.1321111 ], [ 10.8644298, 45.1323486 ], [ 10.8644855, 45.1325304 ], [ 10.8648698, 45.1328525 ], [ 10.8645084, 45.133086 ], [ 10.8645413, 45.1332642 ], [ 10.8643046, 45.1333923 ], [ 10.8639727, 45.1330287 ], [ 10.8635889, 45.1326812 ], [ 10.8635076, 45.1327209 ], [ 10.8628638, 45.132399 ], [ 10.8614544, 45.1322246 ], [ 10.8611534, 45.132406 ], [ 10.8616586, 45.1330878 ], [ 10.8610946, 45.1332925 ], [ 10.8607638, 45.1333332 ], [ 10.8606656, 45.1331808 ], [ 10.8603381, 45.1332977 ], [ 10.8601184, 45.1332131 ], [ 10.8599851, 45.1332234 ], [ 10.8597473, 45.1333184 ], [ 10.8595789, 45.1330885 ], [ 10.8590983, 45.1332655 ], [ 10.8589882, 45.1324876 ], [ 10.859551, 45.1322698 ], [ 10.8593113, 45.1319469 ], [ 10.8589034, 45.1320937 ], [ 10.8587763, 45.1315574 ], [ 10.8586599, 45.1315399 ], [ 10.8585184, 45.1314 ], [ 10.8577882, 45.1318769 ], [ 10.8574705, 45.1320681 ], [ 10.8573748, 45.1321257 ], [ 10.8571404, 45.1319476 ], [ 10.8569354, 45.1316273 ], [ 10.8566797, 45.1312278 ], [ 10.8564254, 45.1309144 ], [ 10.8538705, 45.1286586 ], [ 10.8538319, 45.1286246 ] ] ] } },
{ "type": "Feature", "properties": { "name": "Area Spinelli", "name:en": null, "amenity": null, "building": null, "port": "cargo", "operator:type": null, "addr:full": null, "addr:city": null, "source": null, "name:it": null, "osm_id": 1068112235, "osm_type": "ways_poly" }, "geometry": { "type": "Polygon", "coordinates": [ [ [ 8.9016788, 44.4032695 ], [ 8.9016941, 44.403074 ], [ 8.9019456, 44.4016153 ], [ 8.9019594, 44.4015161 ], [ 8.9023509, 44.4015391 ], [ 8.9024416, 44.4008328 ], [ 8.9031111, 44.4006471 ], [ 8.9031823, 44.4006828 ], [ 8.9031832, 44.4008684 ], [ 8.9029759, 44.4009259 ], [ 8.9029206, 44.4023795 ], [ 8.9026419, 44.403791 ], [ 8.9025602, 44.4037754 ], [ 8.9024893, 44.4036924 ], [ 8.9019429, 44.4035907 ], [ 8.9017444, 44.4034298 ], [ 8.9016788, 44.4032695 ] ] ] } },
{ "type": "Feature", "properties": { "name": "Ex Terminal Rinfuse", "name:en": null, "amenity": null, "building": null, "port": "cargo", "operator:type": null, "addr:full": null, "addr:city": null, "source": null, "name:it": null, "osm_id": 1068112236, "osm_type": "ways_poly" }, "geometry": { "type": "Polygon", "coordinates": [ [ [ 8.9008704, 44.4012938 ], [ 8.9008823, 44.401241 ], [ 8.9024416, 44.4008328 ], [ 8.9023509, 44.4015391 ], [ 8.9019594, 44.4015161 ], [ 8.9019456, 44.4016153 ], [ 8.9011547, 44.4015544 ], [ 8.9011145, 44.4012286 ], [ 8.9008704, 44.4012938 ] ] ] } },
{ "type": "Feature", "properties": { "name": "Ferry Terminal - Porto di Bari", "name:en": "Ferry Terminal - Bari Port", "amenity": "ferry_terminal", "building": "yes", "port": null, "operator:type": null, "addr:full": null, "addr:city": null, "source": null, "name:it": null, "osm_id": 417998823, "osm_type": "ways_poly" }, "geometry": { "type": "Polygon", "coordinates": [ [ [ 16.8662877, 41.1329684 ], [ 16.8663572, 41.132918 ], [ 16.8670561, 41.1324052 ], [ 16.8670766, 41.1323907 ], [ 16.8672589, 41.1325371 ], [ 16.8672399, 41.1325505 ], [ 16.8668577, 41.1328256 ], [ 16.8665354, 41.1330577 ], [ 16.8664673, 41.133107 ], [ 16.8664549, 41.1330975 ], [ 16.8664088, 41.1330944 ], [ 16.866385, 41.1330858 ], [ 16.8664026, 41.1330582 ], [ 16.8663545, 41.133019 ], [ 16.8663235, 41.1330256 ], [ 16.8663249, 41.1330293 ], [ 16.8663214, 41.1330301 ], [ 16.8663029, 41.1329803 ], [ 16.8662877, 41.1329684 ] ] ] } },
{ "type": "Feature", "properties": { "name": "Terminal Fusina", "name:en": null, "amenity": "ferry_terminal", "building": "yes", "port": null, "operator:type": null, "addr:full": null, "addr:city": null, "source": null, "name:it": null, "osm_id": 189305617, "osm_type": "ways_poly" }, "geometry": { "type": "Polygon", "coordinates": [ [ [ 12.2582503, 45.4187505 ], [ 12.258255, 45.4186895 ], [ 12.2585715, 45.4187016 ], [ 12.258575, 45.4186575 ], [ 12.2583076, 45.4186472 ], [ 12.2583129, 45.4185743 ], [ 12.2589359, 45.4185967 ], [ 12.2589301, 45.4186763 ], [ 12.2588075, 45.4186718 ], [ 12.2588045, 45.4187125 ], [ 12.2588925, 45.4187159 ], [ 12.258894, 45.4186936 ], [ 12.2589457, 45.4186955 ], [ 12.2589396, 45.4187765 ], [ 12.2582503, 45.4187505 ] ] ] } },
{ "type": "Feature", "properties": { "name": "PSA Genova Pra'", "name:en": null, "amenity": null, "building": null, "port": "cargo", "operator:type": null, "addr:full": null, "addr:city": null, "source": null, "name:it": null, "osm_id": 108518300, "osm_type": "ways_poly" }, "geometry": { "type": "Polygon", "coordinates": [ [ [ 8.7712288, 44.4253773 ], [ 8.7727071, 44.4252047 ], [ 8.772663, 44.425005 ], [ 8.7726063, 44.4247234 ], [ 8.7725516, 44.4245006 ], [ 8.7730149, 44.4244505 ], [ 8.7735397, 44.4245025 ], [ 8.7732976, 44.4236631 ], [ 8.7748459, 44.4234354 ], [ 8.7754672, 44.423343 ], [ 8.7755093, 44.4232009 ], [ 8.7752992, 44.4224738 ], [ 8.7747851, 44.4221952 ], [ 8.7754717, 44.420611 ], [ 8.7765688, 44.4204443 ], [ 8.7767056, 44.420906 ], [ 8.7770945, 44.420837 ], [ 8.7770709, 44.4207128 ], [ 8.7770154, 44.420508 ], [ 8.7772146, 44.4204756 ], [ 8.7771806, 44.4204089 ], [ 8.777356, 44.4203749 ], [ 8.7775592, 44.4200732 ], [ 8.7965434, 44.4172047 ], [ 8.7965525, 44.4172472 ], [ 8.7964054, 44.4172725 ], [ 8.7964678, 44.4175186 ], [ 8.7963472, 44.4175699 ], [ 8.7961702, 44.4177302 ], [ 8.7971817, 44.4212176 ], [ 8.7972139, 44.4212445 ], [ 8.7974409, 44.4213034 ], [ 8.7975504, 44.4217346 ], [ 8.7861101, 44.4234592 ], [ 8.7797122, 44.4244237 ], [ 8.7793775, 44.4245083 ], [ 8.7790058, 44.4246343 ], [ 8.7787901, 44.4247238 ], [ 8.7787155, 44.4247547 ], [ 8.778409, 44.4248929 ], [ 8.7779661, 44.4251505 ], [ 8.7776456, 44.4253783 ], [ 8.7774694, 44.4255306 ], [ 8.7770496, 44.4259342 ], [ 8.7769725, 44.4258943 ], [ 8.7769885, 44.4258827 ], [ 8.7769358, 44.4258532 ], [ 8.7766473, 44.4261191 ], [ 8.7763472, 44.4262492 ], [ 8.7752126, 44.4263603 ], [ 8.7749977, 44.4251999 ], [ 8.7712669, 44.4255889 ], [ 8.7712288, 44.4253773 ] ] ] } },
{ "type": "Feature", "properties": { "name": "Borgo Medioevale", "name:en": null, "amenity": "ferry_terminal", "building": null, "port": null, "operator:type": null, "addr:full": null, "addr:city": null, "source": null, "name:it": null, "osm_id": 104931831, "osm_type": "ways_poly" }, "geometry": { "type": "Polygon", "coordinates": [ [ [ 7.685443, 45.04881 ], [ 7.6854773, 45.0487852 ], [ 7.6855269, 45.0487825 ], [ 7.6855322, 45.0488409 ], [ 7.6855377, 45.0489011 ], [ 7.6854852, 45.0489023 ], [ 7.6854484, 45.048881 ], [ 7.685446, 45.0488502 ], [ 7.685443, 45.04881 ] ] ] } },
{ "type": "Feature", "properties": { "name": "S. Maria del Mare", "name:en": null, "amenity": "ferry_terminal", "building": null, "port": null, "operator:type": null, "addr:full": null, "addr:city": null, "source": null, "name:it": null, "osm_id": 157253933, "osm_type": "ways_poly" }, "geometry": { "type": "Polygon", "coordinates": [ [ [ 12.3168941, 45.3326781 ], [ 12.3172061, 45.332657 ], [ 12.3172223, 45.3327756 ], [ 12.3169103, 45.3327967 ], [ 12.3168941, 45.3326781 ] ] ] } },
{ "type": "Feature", "properties": { "name": "Imbarcadero NLM", "name:en": null, "amenity": "ferry_terminal", "building": "commercial", "port": null, "operator:type": null, "addr:full": null, "addr:city": null, "source": null, "name:it": null, "osm_id": 222275125, "osm_type": "ways_poly" }, "geometry": { "type": "Polygon", "coordinates": [ [ [ 8.6182, 45.9090763 ], [ 8.6184302, 45.9089811 ], [ 8.6184715, 45.9090295 ], [ 8.6185172, 45.9090831 ], [ 8.618287, 45.9091782 ], [ 8.6182, 45.9090763 ] ] ] } },
{ "type": "Feature", "properties": { "name": null, "name:en": null, "amenity": "ferry_terminal", "building": null, "port": null, "operator:type": null, "addr:full": null, "addr:city": null, "source": null, "name:it": null, "osm_id": 1059918580, "osm_type": "ways_poly" }, "geometry": { "type": "Polygon", "coordinates": [ [ [ 8.6789251, 45.6672938 ], [ 8.6789769, 45.6672791 ], [ 8.6790194, 45.6672682 ], [ 8.6790391, 45.6673036 ], [ 8.6790822, 45.6673811 ], [ 8.6789878, 45.6674067 ], [ 8.6789251, 45.6672938 ] ] ] } },
{ "type": "Feature", "properties": { "name": "Porto Petroli", "name:en": null, "amenity": null, "building": null, "port": "cargo", "operator:type": null, "addr:full": null, "addr:city": null, "source": null, "name:it": null, "osm_id": 109787202, "osm_type": "ways_poly" }, "geometry": { "type": "Polygon", "coordinates": [ [ [ 8.8265332, 44.420267 ], [ 8.8267366, 44.4202461 ], [ 8.827087, 44.4204602 ], [ 8.827266, 44.4238923 ], [ 8.8272888, 44.4239073 ], [ 8.8284118, 44.4239136 ], [ 8.8287005, 44.4229188 ], [ 8.8286665, 44.4229083 ], [ 8.828871, 44.4222729 ], [ 8.8291733, 44.4223225 ], [ 8.8289799, 44.4229527 ], [ 8.8289346, 44.4229487 ], [ 8.8286447, 44.423909 ], [ 8.828743, 44.4239648 ], [ 8.8287976, 44.4241388 ], [ 8.8301692, 44.4241454 ], [ 8.8303535, 44.4234799 ], [ 8.8304518, 44.4234292 ], [ 8.8306327, 44.4228296 ], [ 8.8305542, 44.4228223 ], [ 8.8308306, 44.4218814 ], [ 8.8310199, 44.4219092 ], [ 8.8312129, 44.4219375 ], [ 8.8309364, 44.4228759 ], [ 8.8308579, 44.4228662 ], [ 8.8306941, 44.4234365 ], [ 8.8323801, 44.423439 ], [ 8.8325951, 44.4227224 ], [ 8.83252, 44.4227077 ], [ 8.8328374, 44.4216304 ], [ 8.8330378, 44.4216626 ], [ 8.8332162, 44.4216913 ], [ 8.8328886, 44.4227638 ], [ 8.8328101, 44.4227541 ], [ 8.8326169, 44.4234368 ], [ 8.8327536, 44.4234379 ], [ 8.8328199, 44.4234562 ], [ 8.8337329, 44.4239235 ], [ 8.8344312, 44.4239216 ], [ 8.8347115, 44.4229507 ], [ 8.8346408, 44.4229355 ], [ 8.8349397, 44.4219009 ], [ 8.8351432, 44.421934 ], [ 8.8353151, 44.4219619 ], [ 8.8350114, 44.4229905 ], [ 8.8349363, 44.4229807 ], [ 8.8346496, 44.4239289 ], [ 8.8348048, 44.4239279 ], [ 8.8348217, 44.4239278 ], [ 8.8353183, 44.4239244 ], [ 8.8353162, 44.424051 ], [ 8.8348087, 44.4240539 ], [ 8.8347568, 44.4246875 ], [ 8.8317636, 44.4251659 ], [ 8.8288793, 44.4256009 ], [ 8.8282437, 44.4256491 ], [ 8.8281652, 44.4256398 ], [ 8.8281089, 44.4256111 ], [ 8.8280644, 44.4255755 ], [ 8.8280413, 44.4255102 ], [ 8.8274816, 44.4255073 ], [ 8.8270004, 44.4253928 ], [ 8.8270119, 44.424432 ], [ 8.8270128, 44.4243885 ], [ 8.8267438, 44.4244008 ], [ 8.8265332, 44.420267 ] ] ] } },
{ "type": "Feature", "properties": { "name": "Terminal Crociere di La Spezia", "name:en": null, "amenity": "ferry_terminal", "building": "transportation", "port": null, "operator:type": null, "addr:full": null, "addr:city": "La Spezia", "source": null, "name:it": null, "osm_id": 175935400, "osm_type": "ways_poly" }, "geometry": { "type": "Polygon", "coordinates": [ [ [ 9.8299609, 44.1067676 ], [ 9.8301319, 44.1066609 ], [ 9.830265, 44.1065779 ], [ 9.8306517, 44.1068976 ], [ 9.8304493, 44.1070238 ], [ 9.8303475, 44.1070873 ], [ 9.8299609, 44.1067676 ] ] ] } },
{ "type": "Feature", "properties": { "name": "Terminal Multiservice", "name:en": null, "amenity": null, "building": null, "port": "cargo", "operator:type": null, "addr:full": null, "addr:city": null, "source": null, "name:it": null, "osm_id": 626197988, "osm_type": "ways_poly" }, "geometry": { "type": "Polygon", "coordinates": [ [ [ 12.2446999, 45.4633984 ], [ 12.2449037, 45.4629582 ], [ 12.2455958, 45.461884 ], [ 12.2456038, 45.4612989 ], [ 12.2455797, 45.4607383 ], [ 12.2458237, 45.4605182 ], [ 12.2523855, 45.4579338 ], [ 12.2530147, 45.458791 ], [ 12.2463203, 45.4614313 ], [ 12.2462881, 45.4635878 ], [ 12.246505, 45.4636016 ], [ 12.2467692, 45.4637307 ], [ 12.2494947, 45.4611397 ], [ 12.2514248, 45.460397 ], [ 12.251582, 45.4605977 ], [ 12.2570372, 45.4584166 ], [ 12.2572797, 45.4585332 ], [ 12.2574006, 45.4585583 ], [ 12.2579312, 45.4589372 ], [ 12.257976, 45.4590117 ], [ 12.2579848, 45.4591291 ], [ 12.2579003, 45.4592303 ], [ 12.2567886, 45.4597205 ], [ 12.2544095, 45.460663 ], [ 12.2543505, 45.4605859 ], [ 12.2529316, 45.4609641 ], [ 12.2530013, 45.4611578 ], [ 12.2543288, 45.4613572 ], [ 12.2545686, 45.4616148 ], [ 12.2544871, 45.4616582 ], [ 12.251566, 45.4632149 ], [ 12.2510111, 45.4625688 ], [ 12.2505149, 45.4619254 ], [ 12.2500992, 45.4621154 ], [ 12.2495815, 45.4623355 ], [ 12.2489807, 45.462898 ], [ 12.2475699, 45.4641678 ], [ 12.2471962, 45.4643286 ], [ 12.2468135, 45.4644932 ], [ 12.2454053, 45.4649259 ], [ 12.2447348, 45.4641245 ], [ 12.2446999, 45.4633984 ] ] ] } },
{ "type": "Feature", "properties": { "name": "Riva di Solto", "name:en": null, "amenity": "ferry_terminal", "building": null, "port": null, "operator:type": null, "addr:full": null, "addr:city": null, "source": null, "name:it": null, "osm_id": 306036372, "osm_type": "ways_poly" }, "geometry": { "type": "Polygon", "coordinates": [ [ [ 10.0387141, 45.7728992 ], [ 10.0387297, 45.7728889 ], [ 10.0387807, 45.7728554 ], [ 10.0387996, 45.7728693 ], [ 10.0388184, 45.7728833 ], [ 10.0387665, 45.7729174 ], [ 10.0387518, 45.7729271 ], [ 10.0387141, 45.7728992 ] ] ] } },
{ "type": "Feature", "properties": { "name": "Reefer Terminal", "name:en": null, "amenity": null, "building": null, "port": "cargo", "operator:type": null, "addr:full": null, "addr:city": null, "source": null, "name:it": null, "osm_id": 280237387, "osm_type": "ways_poly" }, "geometry": { "type": "Polygon", "coordinates": [ [ [ 8.4492917, 44.2624745 ], [ 8.4493333, 44.2624258 ], [ 8.4493712, 44.2623869 ], [ 8.4493963, 44.2623519 ], [ 8.4494247, 44.2622957 ], [ 8.4495573, 44.2622751 ], [ 8.4497457, 44.2622363 ], [ 8.4499503, 44.262166 ], [ 8.4507207, 44.2618805 ], [ 8.4509064, 44.2617994 ], [ 8.451108, 44.2617088 ], [ 8.4514515, 44.2615346 ], [ 8.4515174, 44.2615013 ], [ 8.4517649, 44.2613763 ], [ 8.4519459, 44.2612736 ], [ 8.4521113, 44.261154 ], [ 8.4522714, 44.2610151 ], [ 8.4524188, 44.2608601 ], [ 8.4525294, 44.2607202 ], [ 8.4525362, 44.2607103 ], [ 8.4526847, 44.2604924 ], [ 8.4528506, 44.2602361 ], [ 8.4529262, 44.2600796 ], [ 8.4530956, 44.2597344 ], [ 8.4530818, 44.2594807 ], [ 8.453085, 44.25908 ], [ 8.4532525, 44.2589016 ], [ 8.4532968, 44.2588151 ], [ 8.4532834, 44.2586184 ], [ 8.4532665, 44.2584793 ], [ 8.4532282, 44.2581716 ], [ 8.4532046, 44.257881 ], [ 8.4532108, 44.2578564 ], [ 8.4532236, 44.2578349 ], [ 8.4532851, 44.2577559 ], [ 8.4533205, 44.2577112 ], [ 8.453335, 44.2576641 ], [ 8.4533383, 44.2576129 ], [ 8.4533396, 44.2575566 ], [ 8.4533243, 44.2574983 ], [ 8.4532929, 44.2574456 ], [ 8.4532582, 44.2573963 ], [ 8.4531896, 44.2573391 ], [ 8.453128, 44.2573012 ], [ 8.4530482, 44.2572716 ], [ 8.4529504, 44.2572508 ], [ 8.4528447, 44.2572424 ], [ 8.4527729, 44.257246 ], [ 8.4525373, 44.2572763 ], [ 8.4522549, 44.2570019 ], [ 8.4521533, 44.2570312 ], [ 8.4519464, 44.256832 ], [ 8.4518684, 44.2566293 ], [ 8.4518338, 44.2564462 ], [ 8.4518444, 44.2563376 ], [ 8.4519212, 44.2561561 ], [ 8.4520938, 44.2558964 ], [ 8.4521878, 44.2556859 ], [ 8.4521773, 44.2554272 ], [ 8.4520397, 44.2552303 ], [ 8.4511836, 44.2541735 ], [ 8.4510394, 44.2540357 ], [ 8.4508472, 44.2539091 ], [ 8.4508262, 44.2537689 ], [ 8.4519896, 44.2532888 ], [ 8.4561381, 44.2583583 ], [ 8.4558992, 44.2602375 ], [ 8.4552358, 44.2601113 ], [ 8.4544111, 44.2598851 ], [ 8.4525241, 44.263623 ], [ 8.452501, 44.2637304 ], [ 8.4524411, 44.2638278 ], [ 8.4498256, 44.2628199 ], [ 8.4499043, 44.2627105 ], [ 8.449732, 44.2626438 ], [ 8.4492917, 44.2624745 ] ] ] } },
{ "type": "Feature", "properties": { "name": "Vado Gateway", "name:en": null, "amenity": null, "building": null, "port": "cargo", "operator:type": null, "addr:full": null, "addr:city": "Vado Ligure", "source": null, "name:it": null, "osm_id": 422139137, "osm_type": "ways_poly" }, "geometry": { "type": "Polygon", "coordinates": [ [ [ 8.4423387, 44.2671597 ], [ 8.4430455, 44.2666286 ], [ 8.4436315, 44.2662118 ], [ 8.444506, 44.2662019 ], [ 8.4448467, 44.2659768 ], [ 8.4508855, 44.2704572 ], [ 8.4486822, 44.2719926 ], [ 8.4485844, 44.2719968 ], [ 8.4457904, 44.2699227 ], [ 8.4427515, 44.2676667 ], [ 8.4426494, 44.2675764 ], [ 8.4424735, 44.2673463 ], [ 8.4423387, 44.2671597 ] ] ] } },
{ "type": "Feature", "properties": { "name": "Faro Rocchetta", "name:en": null, "amenity": "ferry_terminal", "building": null, "port": null, "operator:type": null, "addr:full": null, "addr:city": null, "source": null, "name:it": null, "osm_id": 157254438, "osm_type": "ways_poly" }, "geometry": { "type": "Polygon", "coordinates": [ [ [ 12.3087037, 45.3411699 ], [ 12.3087636, 45.3411505 ], [ 12.3088438, 45.3411246 ], [ 12.3089687, 45.3413155 ], [ 12.3088286, 45.3413608 ], [ 12.3087037, 45.3411699 ] ] ] } },
{ "type": "Feature", "properties": { "name": "Faro Rocchetta", "name:en": null, "amenity": "ferry_terminal", "building": null, "port": null, "operator:type": null, "addr:full": null, "addr:city": null, "source": null, "name:it": null, "osm_id": 157254439, "osm_type": "ways_poly" }, "geometry": { "type": "Polygon", "coordinates": [ [ [ 12.308741, 45.3419154 ], [ 12.3088376, 45.3417095 ], [ 12.3089916, 45.3417452 ], [ 12.3088949, 45.3419511 ], [ 12.308741, 45.3419154 ] ] ] } },
{ "type": "Feature", "properties": { "name": "Faro Rocchetta", "name:en": null, "amenity": "ferry_terminal", "building": null, "port": null, "operator:type": null, "addr:full": null, "addr:city": null, "source": null, "name:it": null, "osm_id": 1160700655, "osm_type": "ways_poly" }, "geometry": { "type": "Polygon", "coordinates": [ [ [ 12.3086776, 45.3414797 ], [ 12.3087372, 45.3414784 ], [ 12.3087403, 45.3415471 ], [ 12.3087422, 45.3415886 ], [ 12.3086826, 45.3415899 ], [ 12.3086776, 45.3414797 ] ] ] } },
{ "type": "Feature", "properties": { "name": null, "name:en": null, "amenity": "ferry_terminal", "building": "yes", "port": null, "operator:type": null, "addr:full": null, "addr:city": null, "source": null, "name:it": null, "osm_id": 709710716, "osm_type": "ways_poly" }, "geometry": { "type": "Polygon", "coordinates": [ [ [ 12.1359238, 43.1830661 ], [ 12.1359664, 43.1829828 ], [ 12.1360806, 43.1830139 ], [ 12.136038, 43.1830972 ], [ 12.1359238, 43.1830661 ] ] ] } },
{ "type": "Feature", "properties": { "name": "Terminal Crociere", "name:en": "Cruise Terminal", "amenity": "ferry_terminal", "building": "yes", "port": null, "operator:type": null, "addr:full": null, "addr:city": null, "source": null, "name:it": null, "osm_id": 175801894, "osm_type": "ways_poly" }, "geometry": { "type": "Polygon", "coordinates": [ [ [ 10.300156, 43.5522378 ], [ 10.3004035, 43.5520403 ], [ 10.3004782, 43.5520894 ], [ 10.3005241, 43.5520528 ], [ 10.3007978, 43.552233 ], [ 10.3007525, 43.5522691 ], [ 10.3013016, 43.5526305 ], [ 10.3012958, 43.5526351 ], [ 10.3012746, 43.552652 ], [ 10.3010713, 43.5528143 ], [ 10.3010584, 43.5528245 ], [ 10.3005253, 43.5524736 ], [ 10.3005069, 43.5524883 ], [ 10.3004701, 43.5525177 ], [ 10.3002007, 43.5523404 ], [ 10.3002509, 43.5523003 ], [ 10.300156, 43.5522378 ] ] ] } },
{ "type": "Feature", "properties": { "name": "Terminal Crociere", "name:en": null, "amenity": null, "building": "ferry_terminal", "port": null, "operator:type": null, "addr:full": null, "addr:city": null, "source": null, "name:it": null, "osm_id": 365643468, "osm_type": "ways_poly" }, "geometry": { "type": "Polygon", "coordinates": [ [ [ 8.9144318, 44.4128105 ], [ 8.9147099, 44.4123998 ], [ 8.9148737, 44.4124595 ], [ 8.9148954, 44.4124334 ], [ 8.9149588, 44.412457 ], [ 8.9150738, 44.4121905 ], [ 8.9154252, 44.4122589 ], [ 8.9155534, 44.4122734 ], [ 8.9156389, 44.4118921 ], [ 8.9156425, 44.4118742 ], [ 8.9156503, 44.411835 ], [ 8.9158292, 44.4118529 ], [ 8.915822, 44.4118923 ], [ 8.9158053, 44.4119836 ], [ 8.9157815, 44.4121138 ], [ 8.915743, 44.4123242 ], [ 8.9157023, 44.4125472 ], [ 8.9156634, 44.4127595 ], [ 8.915639, 44.4128935 ], [ 8.9156234, 44.4129786 ], [ 8.9155842, 44.4131937 ], [ 8.9153985, 44.413174 ], [ 8.9154296, 44.4130063 ], [ 8.9154116, 44.4130049 ], [ 8.9153877, 44.413003 ], [ 8.9153988, 44.4129151 ], [ 8.9154368, 44.4127123 ], [ 8.9152904, 44.4126791 ], [ 8.9153025, 44.412639 ], [ 8.9152037, 44.4126188 ], [ 8.9151737, 44.4126948 ], [ 8.9149699, 44.4126524 ], [ 8.9149189, 44.4126418 ], [ 8.9149512, 44.4125633 ], [ 8.9148072, 44.4125359 ], [ 8.9146039, 44.4128653 ], [ 8.9144318, 44.4128105 ] ] ] } },
{ "type": "Feature", "properties": { "name": "Porto commerciale di Augusta", "name:en": null, "amenity": null, "building": null, "port": "cargo", "operator:type": null, "addr:full": null, "addr:city": null, "source": null, "name:it": null, "osm_id": 692280482, "osm_type": "ways_poly" }, "geometry": { "type": "Polygon", "coordinates": [ [ [ 15.1887095, 37.2368637 ], [ 15.1911928, 37.2363482 ], [ 15.1928267, 37.236009 ], [ 15.1931485, 37.2357485 ], [ 15.1935145, 37.2360412 ], [ 15.1935949, 37.2361038 ], [ 15.1936844, 37.2361752 ], [ 15.1951134, 37.2373157 ], [ 15.1975459, 37.2353496 ], [ 15.2001959, 37.2373503 ], [ 15.1986113, 37.2387166 ], [ 15.1977879, 37.2381058 ], [ 15.1965004, 37.2391992 ], [ 15.1960123, 37.2388596 ], [ 15.1950529, 37.2396602 ], [ 15.1935402, 37.2389753 ], [ 15.1915433, 37.2373444 ], [ 15.1910509, 37.2374511 ], [ 15.1899529, 37.2376889 ], [ 15.1891605, 37.237514 ], [ 15.189108, 37.2375024 ], [ 15.1891405, 37.2374089 ], [ 15.189148, 37.2373934 ], [ 15.189096, 37.2372342 ], [ 15.1890364, 37.2372464 ], [ 15.1888409, 37.2372543 ], [ 15.1887337, 37.2369511 ], [ 15.1887095, 37.2368637 ] ] ] } },
{ "type": "Feature", "properties": { "name": "Europea Servizi Terminalistici Augusta", "name:en": null, "amenity": null, "building": null, "port": "cargo", "operator:type": null, "addr:full": null, "addr:city": null, "source": null, "name:it": null, "osm_id": 1232881450, "osm_type": "ways_poly" }, "geometry": { "type": "Polygon", "coordinates": [ [ [ 15.1950529, 37.2396602 ], [ 15.1960123, 37.2388596 ], [ 15.1965004, 37.2391992 ], [ 15.1977879, 37.2381058 ], [ 15.1986113, 37.2387166 ], [ 15.2001959, 37.2373503 ], [ 15.2033349, 37.2396632 ], [ 15.2031455, 37.2398292 ], [ 15.2025207, 37.2393767 ], [ 15.2014207, 37.2394361 ], [ 15.2013123, 37.239442 ], [ 15.2012556, 37.239445 ], [ 15.2007064, 37.2394747 ], [ 15.199686, 37.2396517 ], [ 15.1973992, 37.2403281 ], [ 15.1956484, 37.2399298 ], [ 15.1950529, 37.2396602 ] ] ] } },
{ "type": "Feature", "properties": { "name": null, "name:en": null, "amenity": "ferry_terminal", "building": null, "port": null, "operator:type": null, "addr:full": null, "addr:city": null, "source": null, "name:it": null, "osm_id": 1059918581, "osm_type": "ways_poly" }, "geometry": { "type": "Polygon", "coordinates": [ [ [ 8.6791714, 45.6678752 ], [ 8.6792101, 45.6678646 ], [ 8.6791958, 45.6678392 ], [ 8.6792315, 45.6678294 ], [ 8.6792458, 45.6678548 ], [ 8.6792809, 45.6678451 ], [ 8.679447, 45.6681403 ], [ 8.6794026, 45.6681525 ], [ 8.6793375, 45.6681704 ], [ 8.6791714, 45.6678752 ] ] ] } },
{ "type": "Feature", "properties": { "name": "Porto di San Benedetto Po", "name:en": null, "amenity": null, "building": null, "port": "cargo", "operator:type": null, "addr:full": null, "addr:city": null, "source": null, "name:it": null, "osm_id": 132193187, "osm_type": "ways_poly" }, "geometry": { "type": "Polygon", "coordinates": [ [ [ 10.9331999, 45.0704067 ], [ 10.9365422, 45.0696258 ], [ 10.938066, 45.0691869 ], [ 10.9383632, 45.0701076 ], [ 10.9370672, 45.0707499 ], [ 10.9356441, 45.0715884 ], [ 10.9345042, 45.0722832 ], [ 10.9338574, 45.0726094 ], [ 10.9337712, 45.0726295 ], [ 10.9331999, 45.0704067 ] ] ] } },
{ "type": "Feature", "properties": { "name": "Genoa Port Terminal", "name:en": null, "amenity": null, "building": null, "port": "cargo", "operator:type": null, "addr:full": null, "addr:city": null, "source": null, "name:it": null, "osm_id": 148823538, "osm_type": "ways_poly" }, "geometry": { "type": "Polygon", "coordinates": [ [ [ 8.8948188, 44.405952 ], [ 8.8965138, 44.4056225 ], [ 8.8971464, 44.4021176 ], [ 8.8972366, 44.4020519 ], [ 8.8988262, 44.4017637 ], [ 8.8989296, 44.4017772 ], [ 8.8985646, 44.4037663 ], [ 8.8989963, 44.4038127 ], [ 8.8989974, 44.4038772 ], [ 8.9002678, 44.4036557 ], [ 8.9004597, 44.4036159 ], [ 8.9008704, 44.4012938 ], [ 8.9011145, 44.4012286 ], [ 8.9011547, 44.4015544 ], [ 8.9019456, 44.4016153 ], [ 8.9016941, 44.403074 ], [ 8.9016788, 44.4032695 ], [ 8.9017444, 44.4034298 ], [ 8.9019429, 44.4035907 ], [ 8.9024893, 44.4036924 ], [ 8.9025602, 44.4037754 ], [ 8.9026419, 44.403791 ], [ 8.9031204, 44.4038399 ], [ 8.9029058, 44.4049455 ], [ 8.9027154, 44.4049896 ], [ 8.9024461, 44.4050561 ], [ 8.9012798, 44.4053084 ], [ 8.9007123, 44.4054221 ], [ 8.9004604, 44.4053368 ], [ 8.9003912, 44.4051159 ], [ 8.900385, 44.4051019 ], [ 8.898675, 44.4054385 ], [ 8.898034, 44.4055532 ], [ 8.897824, 44.4056041 ], [ 8.8977423, 44.4056338 ], [ 8.8976719, 44.4056665 ], [ 8.8975542, 44.4057349 ], [ 8.8974441, 44.4058087 ], [ 8.8973601, 44.4058737 ], [ 8.8972521, 44.4059815 ], [ 8.8971026, 44.4061826 ], [ 8.8970188, 44.406152 ], [ 8.8967945, 44.4064369 ], [ 8.8966727, 44.4065375 ], [ 8.8964379, 44.406708 ], [ 8.8962401, 44.4067899 ], [ 8.8960004, 44.4068816 ], [ 8.8957742, 44.4069471 ], [ 8.8949712, 44.4071184 ], [ 8.8948814, 44.4069639 ], [ 8.8949755, 44.4068515 ], [ 8.8953341, 44.4067501 ], [ 8.8951696, 44.4065509 ], [ 8.8950746, 44.4063024 ], [ 8.8949248, 44.4062401 ], [ 8.894862, 44.4060616 ], [ 8.8948188, 44.405952 ] ] ] } },
{ "type": "Feature", "properties": { "name": "Ex Terminal Rinfuse", "name:en": null, "amenity": null, "building": null, "port": "cargo", "operator:type": null, "addr:full": null, "addr:city": null, "source": null, "name:it": null, "osm_id": 254217393, "osm_type": "ways_poly" }, "geometry": { "type": "Polygon", "coordinates": [ [ [ 8.9029206, 44.4023795 ], [ 8.9029759, 44.4009259 ], [ 8.9031832, 44.4008684 ], [ 8.9031893, 44.4020923 ], [ 8.9031993, 44.4023261 ], [ 8.9045034, 44.4024587 ], [ 8.9049606, 44.4000826 ], [ 8.906596, 44.399744 ], [ 8.9066778, 44.3997831 ], [ 8.9060572, 44.4032428 ], [ 8.9079447, 44.4031363 ], [ 8.9084882, 44.4000919 ], [ 8.9087437, 44.3998718 ], [ 8.9087734, 44.3998675 ], [ 8.9088272, 44.4000204 ], [ 8.9102437, 44.3997604 ], [ 8.9096485, 44.402724 ], [ 8.9095528, 44.4028143 ], [ 8.9095208, 44.4027968 ], [ 8.908904, 44.4032346 ], [ 8.9086239, 44.4035206 ], [ 8.9080689, 44.4036703 ], [ 8.9073666, 44.4039455 ], [ 8.9056253, 44.4040475 ], [ 8.9049538, 44.4038524 ], [ 8.904642, 44.403736 ], [ 8.9050105, 44.4031484 ], [ 8.9051351, 44.4025738 ], [ 8.9032119, 44.4023995 ], [ 8.9029206, 44.4023795 ] ] ] } },
{ "type": "Feature", "properties": { "name": "Terminal Bettolo Genoa Mediterranean Gateway", "name:en": null, "amenity": null, "building": null, "port": "cargo", "operator:type": null, "addr:full": null, "addr:city": null, "source": null, "name:it": null, "osm_id": 858616418, "osm_type": "ways_poly" }, "geometry": { "type": "Polygon", "coordinates": [ [ [ 8.9087835, 44.3998649 ], [ 8.9100179, 44.3996297 ], [ 8.9108361, 44.3994633 ], [ 8.9132314, 44.3990268 ], [ 8.9131468, 44.399418 ], [ 8.9128952, 44.3994679 ], [ 8.9123265, 44.4023086 ], [ 8.9135377, 44.402089 ], [ 8.9136967, 44.402434 ], [ 8.9136046, 44.4025388 ], [ 8.9127341, 44.4026964 ], [ 8.9123858, 44.4027651 ], [ 8.9122121, 44.4023671 ], [ 8.9107367, 44.4026834 ], [ 8.91071, 44.4026373 ], [ 8.9096306, 44.4028693 ], [ 8.9095657, 44.402823 ], [ 8.9096631, 44.4027321 ], [ 8.9102614, 44.399739 ], [ 8.9088292, 44.4000077 ], [ 8.9087835, 44.3998649 ] ] ] } },
{ "type": "Feature", "properties": { "name": "Getoil", "name:en": null, "amenity": null, "building": null, "port": "cargo", "operator:type": null, "addr:full": null, "addr:city": null, "source": null, "name:it": null, "osm_id": 251618464, "osm_type": "ways_poly" }, "geometry": { "type": "Polygon", "coordinates": [ [ [ 8.9066055, 44.4050748 ], [ 8.9068818, 44.4048895 ], [ 8.9068216, 44.4041925 ], [ 8.9068312, 44.4041542 ], [ 8.906862, 44.404114 ], [ 8.906914, 44.4040843 ], [ 8.907, 44.4040579 ], [ 8.9073303, 44.4040178 ], [ 8.9078477, 44.4038702 ], [ 8.9078466, 44.4039601 ], [ 8.9077703, 44.4041164 ], [ 8.9075993, 44.4043819 ], [ 8.9074626, 44.4045789 ], [ 8.9072884, 44.4047638 ], [ 8.9071729, 44.4048591 ], [ 8.9070356, 44.4049555 ], [ 8.9068844, 44.40505 ], [ 8.9067812, 44.4051058 ], [ 8.9066794, 44.4051537 ], [ 8.9066055, 44.4050748 ] ] ] } },
{ "type": "Feature", "properties": { "name": "Terminal Flavio Gioia", "name:en": null, "amenity": null, "building": null, "port": "container", "operator:type": null, "addr:full": null, "addr:city": null, "source": null, "name:it": null, "osm_id": 223292192, "osm_type": "ways_poly" }, "geometry": { "type": "Polygon", "coordinates": [ [ [ 14.2810678, 40.8392025 ], [ 14.2821637, 40.8387612 ], [ 14.2829852, 40.8413032 ], [ 14.2831462, 40.8415881 ], [ 14.2833668, 40.841508 ], [ 14.2835393, 40.8418319 ], [ 14.281996, 40.8423967 ], [ 14.2820266, 40.8420478 ], [ 14.2818812, 40.8417525 ], [ 14.2810678, 40.8392025 ] ] ] } },
{ "type": "Feature", "properties": { "name": "Roma Cruise Terminal", "name:en": null, "amenity": "ferry_terminal", "building": null, "port": null, "operator:type": null, "addr:full": null, "addr:city": null, "source": null, "name:it": null, "osm_id": 553243137, "osm_type": "ways_poly" }, "geometry": { "type": "Polygon", "coordinates": [ [ [ 11.7727143, 42.1041329 ], [ 11.7739736, 42.1028572 ], [ 11.7741943, 42.1029765 ], [ 11.77462, 42.1032079 ], [ 11.7749816, 42.1033996 ], [ 11.7757269, 42.1038089 ], [ 11.776909, 42.1044474 ], [ 11.7769232, 42.1044551 ], [ 11.7769551, 42.104473 ], [ 11.7770439, 42.1045242 ], [ 11.7770312, 42.1045246 ], [ 11.7770168, 42.1045275 ], [ 11.7770041, 42.1045333 ], [ 11.7769944, 42.1045415 ], [ 11.77694, 42.1046154 ], [ 11.7767021, 42.1048615 ], [ 11.7763463, 42.1052336 ], [ 11.7763233, 42.1052354 ], [ 11.7741443, 42.1040453 ], [ 11.7735912, 42.1046062 ], [ 11.7727143, 42.1041329 ] ] ] } },
{ "type": "Feature", "properties": { "name": "Stazione Passeggeri", "name:en": null, "amenity": "ferry_terminal", "building": "yes", "port": null, "operator:type": null, "addr:full": null, "addr:city": null, "source": null, "name:it": null, "osm_id": 741619982, "osm_type": "ways_poly" }, "geometry": { "type": "Polygon", "coordinates": [ [ [ 14.8300169, 36.7173661 ], [ 14.8303056, 36.7169831 ], [ 14.8303745, 36.7170165 ], [ 14.8305404, 36.7170968 ], [ 14.8306214, 36.717136 ], [ 14.8305396, 36.7172446 ], [ 14.8303328, 36.7175191 ], [ 14.8301853, 36.7174477 ], [ 14.8300169, 36.7173661 ] ] ] } },
{ "type": "Feature", "properties": { "name": "Civitavecchia Fruit & Forest Terminal", "name:en": null, "amenity": null, "building": null, "port": "cargo", "operator:type": null, "addr:full": null, "addr:city": null, "source": null, "name:it": null, "osm_id": 553243140, "osm_type": "ways_poly" }, "geometry": { "type": "Polygon", "coordinates": [ [ [ 11.7739736, 42.1028572 ], [ 11.7752231, 42.1015869 ], [ 11.7771622, 42.1026348 ], [ 11.7766625, 42.1031619 ], [ 11.775949, 42.1038327 ], [ 11.7757949, 42.1037466 ], [ 11.7754937, 42.1035787 ], [ 11.7752509, 42.1034454 ], [ 11.774965, 42.1032907 ], [ 11.7748991, 42.1032544 ], [ 11.7748771, 42.1032474 ], [ 11.7748383, 42.1032467 ], [ 11.774799, 42.1032427 ], [ 11.7747471, 42.1032347 ], [ 11.774692, 42.1032304 ], [ 11.7746588, 42.1032224 ], [ 11.77462, 42.1032079 ], [ 11.7741943, 42.1029765 ], [ 11.7739736, 42.1028572 ] ] ] } },
{ "type": "Feature", "properties": { "name": "Stazione Marittima - Molo Manfredi", "name:en": null, "amenity": "ferry_terminal", "building": "yes", "port": null, "operator:type": null, "addr:full": null, "addr:city": null, "source": null, "name:it": null, "osm_id": 398179921, "osm_type": "ways_poly" }, "geometry": { "type": "Polygon", "coordinates": [ [ [ 14.7516552, 40.6747468 ], [ 14.7517366, 40.6745618 ], [ 14.7517437, 40.6745162 ], [ 14.7517269, 40.6744485 ], [ 14.7519074, 40.6741112 ], [ 14.7520308, 40.6738335 ], [ 14.7522052, 40.6737378 ], [ 14.7522158, 40.6737379 ], [ 14.7522204, 40.6737444 ], [ 14.7521349, 40.6739256 ], [ 14.7519994, 40.6740284 ], [ 14.7519571, 40.6741142 ], [ 14.7520965, 40.673998 ], [ 14.7521181, 40.6740104 ], [ 14.7520519, 40.6740809 ], [ 14.7520996, 40.6740853 ], [ 14.7521372, 40.6740573 ], [ 14.7523436, 40.6740798 ], [ 14.7520601, 40.6746815 ], [ 14.7520147, 40.6747488 ], [ 14.7519756, 40.6748361 ], [ 14.7516552, 40.6747468 ] ] ] } },
{ "type": "Feature", "properties": { "name": "Terminal Traghetti", "name:en": null, "amenity": null, "building": "ferry_terminal", "port": null, "operator:type": null, "addr:full": null, "addr:city": null, "source": null, "name:it": null, "osm_id": 25109507, "osm_type": "ways_poly" }, "geometry": { "type": "Polygon", "coordinates": [ [ [ 8.9079849, 44.4103349 ], [ 8.9083204, 44.4101769 ], [ 8.9082339, 44.4100731 ], [ 8.9080413, 44.409864 ], [ 8.9084894, 44.4096723 ], [ 8.9086464, 44.4096051 ], [ 8.9086969, 44.4096653 ], [ 8.9092708, 44.4103526 ], [ 8.909931, 44.4111375 ], [ 8.9095449, 44.4113027 ], [ 8.9093927, 44.4113678 ], [ 8.9093082, 44.4114039 ], [ 8.9090153, 44.4110546 ], [ 8.9087114, 44.4111868 ], [ 8.9083462, 44.4107586 ], [ 8.9079849, 44.4103349 ] ] ] } },
{ "type": "Feature", "properties": { "name": "Adriatic Container Terminal", "name:en": null, "amenity": null, "building": null, "port": "cargo", "operator:type": null, "addr:full": null, "addr:city": null, "source": null, "name:it": null, "osm_id": 10579798, "osm_type": "relations" }, "geometry": { "type": "Polygon", "coordinates": [ [ [ 13.4925774, 43.6199677 ], [ 13.4927046, 43.6199033 ], [ 13.4929113, 43.6201105 ], [ 13.492994, 43.620023 ], [ 13.4930576, 43.6198848 ], [ 13.4931372, 43.6197099 ], [ 13.493228, 43.6197318 ], [ 13.4935981, 43.6185628 ], [ 13.492949, 43.6178716 ], [ 13.4932011, 43.6176036 ], [ 13.4931099, 43.6174366 ], [ 13.4936893, 43.6171648 ], [ 13.4936893, 43.6169861 ], [ 13.4952557, 43.6162637 ], [ 13.493979, 43.6148345 ], [ 13.4936555, 43.6142499 ], [ 13.4936737, 43.6138498 ], [ 13.4939294, 43.6138643 ], [ 13.4939904, 43.6140099 ], [ 13.4974496, 43.6177523 ], [ 13.4990498, 43.6192912 ], [ 13.4994028, 43.6194445 ], [ 13.5013612, 43.6172264 ], [ 13.5014741, 43.6171875 ], [ 13.5019799, 43.6170677 ], [ 13.5027778, 43.6179616 ], [ 13.5020428, 43.6185571 ], [ 13.5006862, 43.6196561 ], [ 13.4995098, 43.6206091 ], [ 13.4991027, 43.6223244 ], [ 13.4990521, 43.6223908 ], [ 13.4985209, 43.6225129 ], [ 13.4976909, 43.6226924 ], [ 13.4976556, 43.6226075 ], [ 13.4980913, 43.6207127 ], [ 13.498187, 43.6202842 ], [ 13.4963516, 43.6200565 ], [ 13.4958176, 43.6223448 ], [ 13.4957126, 43.622453 ], [ 13.4952621, 43.622574 ], [ 13.495056, 43.6224949 ], [ 13.4945493, 43.6219818 ], [ 13.4934014, 43.6208042 ], [ 13.4925774, 43.6199677 ] ] ] } },
{ "type": "Feature", "properties": { "name": "Cagliari International Container Terminal", "name:en": null, "amenity": null, "building": null, "port": "cargo", "operator:type": null, "addr:full": null, "addr:city": null, "source": null, "name:it": null, "osm_id": 14480781, "osm_type": "relations" }, "geometry": { "type": "Polygon", "coordinates": [ [ [ 9.0646135, 39.2200008 ], [ 9.0647175, 39.2199022 ], [ 9.0769059, 39.2102083 ], [ 9.0769868, 39.2101409 ], [ 9.0789893, 39.2116625 ], [ 9.0792519, 39.2118679 ], [ 9.0800672, 39.2112281 ], [ 9.0854453, 39.2151929 ], [ 9.0854654, 39.2157591 ], [ 9.0841994, 39.2167982 ], [ 9.0837783, 39.2168075 ], [ 9.0827349, 39.2176668 ], [ 9.0823634, 39.2173925 ], [ 9.0822588, 39.2173468 ], [ 9.0821367, 39.2173447 ], [ 9.0820375, 39.2173967 ], [ 9.0816432, 39.2177146 ], [ 9.0815578, 39.2176515 ], [ 9.0814621, 39.2175807 ], [ 9.0807552, 39.2170579 ], [ 9.0801747, 39.2166287 ], [ 9.0797724, 39.2163312 ], [ 9.079588, 39.2161948 ], [ 9.0789867, 39.2157501 ], [ 9.0786886, 39.2155297 ], [ 9.0768017, 39.2141344 ], [ 9.0765475, 39.2139464 ], [ 9.0674021, 39.2212428 ], [ 9.0655779, 39.2198726 ], [ 9.0650297, 39.2203116 ], [ 9.0646135, 39.2200008 ] ] ] } },
{ "type": "Feature", "properties": { "name": "Terminal Auto ICO", "name:en": null, "amenity": null, "building": null, "port": "roro", "operator:type": null, "addr:full": null, "addr:city": null, "source": null, "name:it": null, "osm_id": 14481184, "osm_type": "relations" }, "geometry": { "type": "Polygon", "coordinates": [ [ [ 15.9100448, 38.4740932 ], [ 15.9100615, 38.4736867 ], [ 15.9103096, 38.4724209 ], [ 15.9107578, 38.4725457 ], [ 15.9111496, 38.4726484 ], [ 15.9122209, 38.4729361 ], [ 15.9129423, 38.4731284 ], [ 15.9151645, 38.4736999 ], [ 15.9177249, 38.474394 ], [ 15.9191304, 38.4736715 ], [ 15.9194659, 38.4734822 ], [ 15.9207281, 38.4749931 ], [ 15.9189097, 38.4759127 ], [ 15.9185331, 38.4760348 ], [ 15.9178535, 38.475998 ], [ 15.9174445, 38.4759654 ], [ 15.9167354, 38.4760921 ], [ 15.9163177, 38.4762856 ], [ 15.9168367, 38.4769319 ], [ 15.9159647, 38.4771177 ], [ 15.9156512, 38.477013 ], [ 15.9154563, 38.4769534 ], [ 15.9152063, 38.4769114 ], [ 15.9147885, 38.4768884 ], [ 15.9143253, 38.4769182 ], [ 15.9120262, 38.477345 ], [ 15.9117284, 38.4771661 ], [ 15.9115454, 38.4770092 ], [ 15.9112247, 38.4766085 ], [ 15.910798, 38.4757793 ], [ 15.9101796, 38.4745047 ], [ 15.9100448, 38.4740932 ] ] ] } },
{ "type": "Feature", "properties": { "name": "Porto di Ostiglia", "name:en": null, "amenity": null, "building": null, "port": "cargo", "operator:type": null, "addr:full": null, "addr:city": null, "source": null, "name:it": null, "osm_id": 7498365, "osm_type": "relations" }, "geometry": { "type": "Polygon", "coordinates": [ [ [ 11.144016, 45.0943486 ], [ 11.1442653, 45.0942883 ], [ 11.1445711, 45.0944172 ], [ 11.1458687, 45.0940793 ], [ 11.1462808, 45.0939821 ], [ 11.1466771, 45.0938684 ], [ 11.1471838, 45.0939118 ], [ 11.14779, 45.0939938 ], [ 11.1482311, 45.0940513 ], [ 11.1486201, 45.0939742 ], [ 11.1487441, 45.0942052 ], [ 11.147532, 45.0945333 ], [ 11.1472713, 45.0944965 ], [ 11.1472235, 45.0943922 ], [ 11.1444266, 45.0951505 ], [ 11.144016, 45.0943486 ] ] ] } },
{ "type": "Feature", "properties": { "name": "Terminal Grendi", "name:en": null, "amenity": null, "building": null, "port": "cargo", "operator:type": null, "addr:full": null, "addr:city": null, "source": null, "name:it": null, "osm_id": 14480780, "osm_type": "relations" }, "geometry": { "type": "Polygon", "coordinates": [ [ [ 9.0766115, 39.2099828 ], [ 9.0772047, 39.2095209 ], [ 9.077488, 39.2097355 ], [ 9.0790102, 39.2085316 ], [ 9.0791765, 39.2086533 ], [ 9.0789306, 39.2088441 ], [ 9.0791853, 39.2090396 ], [ 9.0789384, 39.2092327 ], [ 9.0806603, 39.2105548 ], [ 9.0801142, 39.2110044 ], [ 9.080188, 39.2110637 ], [ 9.0800312, 39.2111976 ], [ 9.0800672, 39.2112281 ], [ 9.0792519, 39.2118679 ], [ 9.0789893, 39.2116625 ], [ 9.0769868, 39.2101409 ], [ 9.0769059, 39.2102083 ], [ 9.0766115, 39.2099828 ] ] ] } },
{ "type": "Feature", "properties": { "name": "Medcenter Container Terminal", "name:en": null, "amenity": null, "building": null, "port": "cargo", "operator:type": null, "addr:full": null, "addr:city": null, "source": null, "name:it": null, "osm_id": 14481185, "osm_type": "relations" }, "geometry": { "type": "Polygon", "coordinates": [ [ [ 15.9021225, 38.4464955 ], [ 15.9027126, 38.4463622 ], [ 15.9028438, 38.4466078 ], [ 15.9032962, 38.4462747 ], [ 15.9036077, 38.4467206 ], [ 15.9055172, 38.4460317 ], [ 15.9057241, 38.4463363 ], [ 15.9063714, 38.4460819 ], [ 15.9079361, 38.4484217 ], [ 15.9090647, 38.4479288 ], [ 15.9134467, 38.4583499 ], [ 15.9194771, 38.4655414 ], [ 15.919544, 38.4658021 ], [ 15.9195516, 38.4659058 ], [ 15.9196825, 38.4660592 ], [ 15.9195435, 38.4662417 ], [ 15.9193575, 38.4666439 ], [ 15.9191848, 38.4668241 ], [ 15.9188705, 38.4671362 ], [ 15.9185605, 38.467306 ], [ 15.919269, 38.4681866 ], [ 15.9190653, 38.4682871 ], [ 15.9193619, 38.4685818 ], [ 15.9194226, 38.4687788 ], [ 15.9200343, 38.4695172 ], [ 15.9200746, 38.4695647 ], [ 15.9202199, 38.4697411 ], [ 15.9199965, 38.4698545 ], [ 15.9196725, 38.4700306 ], [ 15.9206245, 38.4711859 ], [ 15.9219478, 38.4728553 ], [ 15.9228854, 38.4739081 ], [ 15.9209084, 38.474898 ], [ 15.9207281, 38.4749931 ], [ 15.9194659, 38.4734822 ], [ 15.9191304, 38.4736715 ], [ 15.9184939, 38.4729498 ], [ 15.9179195, 38.4722689 ], [ 15.9169968, 38.4711534 ], [ 15.9166222, 38.4707078 ], [ 15.9161465, 38.4701479 ], [ 15.915573, 38.4694646 ], [ 15.9150186, 38.4687961 ], [ 15.9143304, 38.4679815 ], [ 15.9136138, 38.4671283 ], [ 15.9131594, 38.4665895 ], [ 15.9123849, 38.4656668 ], [ 15.9117585, 38.4649214 ], [ 15.9103878, 38.4632947 ], [ 15.9096868, 38.462498 ], [ 15.908843, 38.4614511 ], [ 15.9079872, 38.4604473 ], [ 15.9072811, 38.4587713 ], [ 15.9070302, 38.4581779 ], [ 15.905885, 38.4554507 ], [ 15.9047259, 38.4526532 ], [ 15.9021225, 38.4464955 ] ] ] } }
]
}
